{"type":"FeatureCollection","features":[{"type":"Feature","geometry":{"type":"Polygon","coordinates":[[[143.8997,-37.0006],[143.8823,-36.9986],[143.8861,-36.9752],[143.8346,-36.9684],[143.8599,-36.95],[143.8465,-36.9281],[143.8657,-36.902],[143.8921,-36.8939],[143.8957,-36.8608],[143.7602,-36.8431],[143.7821,-36.7768],[143.6991,-36.776],[143.71,-36.7294],[143.6543,-36.6998],[143.6352,-36.7043],[143.6315,-36.73],[143.4954,-36.7114],[143.4954,-36.6989],[143.4749,-36.7109],[143.4596,-36.7466],[143.5069,-36.8079],[143.511,-36.8586],[143.502,-36.8871],[143.4674,-36.9115],[143.472,-36.9368],[143.3728,-36.934],[143.3534,-36.9146],[143.2393,-36.9018],[143.107,-36.9044],[143.0899,-36.9629],[143.1052,-36.9788],[143.0871,-36.9772],[143.1027,-37.0015],[143.1011,-37.1013],[143.0862,-37.1248],[143.0965,-37.1497],[143.0669,-37.1474],[143.063,-37.1671],[143.0898,-37.1775],[143.0881,-37.1976],[143.1454,-37.1853],[143.1619,-37.2287],[143.2012,-37.2322],[143.2318,-37.2077],[143.2736,-37.284],[143.2266,-37.2911],[143.2256,-37.3144],[143.2411,-37.3143],[143.2556,-37.3576],[143.209,-37.3764],[143.222,-37.4144],[143.1973,-37.4263],[143.1793,-37.5246],[143.193,-37.5265],[143.1532,-37.5734],[143.1831,-37.594],[143.1745,-37.6351],[143.1561,-37.6326],[143.1213,-37.7075],[143.0854,-37.7026],[143.0721,-37.7195],[143.2319,-37.7464],[143.2671,-37.7335],[143.2719,-37.7534],[143.3041,-37.7566],[143.3539,-37.6704],[143.4647,-37.6589],[143.4407,-37.7848],[143.4525,-37.8773],[143.4428,-37.9057],[143.4771,-37.9244],[143.4794,-37.9408],[143.6107,-37.9582],[143.6218,-37.9819],[143.6371,-37.9716],[143.6546,-37.9885],[143.6651,-37.9305],[143.6361,-37.9269],[143.6632,-37.8702],[143.6517,-37.854],[143.6611,-37.8236],[143.6902,-37.8263],[143.6904,-37.8016],[143.7418,-37.7812],[143.8087,-37.8027],[143.8127,-37.7824],[143.9002,-37.7834],[143.9202,-37.8121],[143.9581,-37.8275],[144.0546,-37.8323],[144.0602,-37.7958],[144.2481,-37.8097],[144.296,-37.8196],[144.3304,-37.8463],[144.3544,-37.845],[144.362,-37.8108],[144.3991,-37.8152],[144.4064,-37.8009],[144.4218,-37.8466],[144.4441,-37.864],[144.449,-37.8371],[144.4668,-37.8391],[144.4872,-37.696],[144.4648,-37.692],[144.4627,-37.706],[144.4027,-37.7278],[144.3926,-37.6962],[144.3457,-37.6581],[144.3566,-37.6478],[144.3336,-37.6374],[144.3377,-37.6187],[144.4021,-37.6397],[144.3848,-37.6067],[144.4232,-37.6136],[144.4207,-37.5928],[144.4485,-37.5918],[144.4691,-37.5212],[144.4593,-37.4971],[144.4724,-37.4316],[144.4264,-37.4589],[144.3793,-37.4388],[144.382,-37.3933],[144.4158,-37.3963],[144.419,-37.3605],[144.3928,-37.3581],[144.3957,-37.3316],[144.3104,-37.2928],[144.344,-37.2262],[144.3761,-37.2022],[144.363,-37.1794],[144.3805,-37.175],[144.2922,-37.1636],[144.2766,-37.2091],[144.1851,-37.1954],[144.1904,-37.1661],[144.0743,-37.1477],[144.0627,-37.2521],[144.0386,-37.2702],[144.0168,-37.2632],[143.9967,-37.2353],[143.9589,-37.2205],[143.9494,-37.1945],[143.8894,-37.1881],[143.9061,-37.1597],[143.9475,-37.1657],[143.9367,-37.1374],[143.9431,-37.1192],[143.9616,-37.1213],[143.9749,-37.0715],[143.9618,-37.0663],[143.9737,-37.0342],[143.9487,-37.0167],[143.9605,-37.0138],[143.9513,-36.9956],[143.9018,-36.9883],[143.8997,-37.0006]]]},"properties":{"sa4_code_2021":"201","sa4_name_2021":"Ballarat","state_code_2021":"2"}},{"type":"Feature","geometry":{"type":"Polygon","coordinates":[[[144.2922,-37.1636],[144.3805,-37.175],[144.363,-37.1794],[144.3761,-37.2022],[144.344,-37.2262],[144.3104,-37.2928],[144.3957,-37.3316],[144.3928,-37.3581],[144.419,-37.3605],[144.4164,-37.3955],[144.382,-37.3933],[144.3778,-37.4159],[144.3793,-37.4388],[144.4252,-37.4587],[144.4782,-37.4142],[144.5129,-37.4151],[144.5455,-37.3828],[144.5616,-37.3855],[144.5759,-37.3589],[144.6003,-37.3596],[144.6044,-37.3355],[144.6343,-37.3363],[144.6593,-37.2964],[144.5919,-37.2481],[144.6489,-37.2214],[144.6277,-37.2153],[144.6497,-37.2071],[144.6588,-37.1808],[144.7118,-37.1764],[144.7352,-37.1265],[144.7154,-37.1003],[144.5739,-37.0991],[144.5413,-37.1148],[144.5304,-37.1003],[144.5505,-37.0545],[144.5412,-37.0158],[144.6322,-37.002],[144.6505,-37.0153],[144.6884,-37.011],[144.6882,-36.9946],[144.7183,-36.9747],[144.7966,-36.9655],[144.8043,-36.9259],[144.8536,-36.8803],[144.7985,-36.8326],[144.7848,-36.7805],[144.7947,-36.7507],[144.6662,-36.7626],[144.6671,-36.7254],[144.518,-36.7255],[144.5348,-36.688],[144.5254,-36.6598],[144.5897,-36.5948],[144.5984,-36.5745],[144.5872,-36.5579],[144.6105,-36.5559],[144.6084,-36.529],[144.626,-36.5274],[144.6103,-36.5168],[144.6206,-36.4813],[144.6715,-36.4571],[144.6587,-36.4405],[144.6743,-36.4255],[144.6682,-36.4066],[144.4302,-36.4113],[144.4157,-36.3963],[144.3694,-36.4078],[144.3583,-36.3852],[144.3301,-36.3853],[144.3318,-36.3277],[144.2817,-36.3277],[144.2668,-36.2248],[144.2892,-36.1292],[144.3187,-36.1012],[144.3039,-36.0613],[144.3177,-36.0487],[144.2799,-36.0133],[144.2914,-35.9844],[144.2601,-35.949],[144.2593,-35.927],[144.1873,-35.9076],[144.185,-35.9467],[143.9226,-35.9528],[143.9185,-35.9374],[143.8617,-35.9349],[143.874,-35.9161],[143.7284,-35.9059],[143.7282,-35.9325],[143.6178,-35.9349],[143.6181,-35.9694],[143.4757,-35.9753],[143.4822,-36.1017],[143.5116,-36.1013],[143.5135,-36.1733],[143.5367,-36.174],[143.5317,-36.2033],[143.5687,-36.2222],[143.508,-36.265],[143.514,-36.2951],[143.4821,-36.295],[143.4785,-36.3761],[143.4389,-36.3684],[143.4451,-36.446],[143.4305,-36.4695],[143.4122,-36.4677],[143.4068,-36.4999],[143.3152,-36.4769],[143.3245,-36.4991],[143.4212,-36.5571],[143.4498,-36.6241],[143.4863,-36.6257],[143.503,-36.6637],[143.4871,-36.6988],[143.4954,-36.7114],[143.6315,-36.73],[143.6352,-36.7043],[143.6703,-36.7042],[143.71,-36.7294],[143.6991,-36.776],[143.7821,-36.7768],[143.7602,-36.8431],[143.8957,-36.8608],[143.8921,-36.8939],[143.8657,-36.902],[143.8465,-36.9281],[143.8599,-36.95],[143.8346,-36.9687],[143.8861,-36.9752],[143.8823,-36.9986],[143.9513,-36.9956],[143.9605,-37.0138],[143.9487,-37.0167],[143.9737,-37.0342],[143.9618,-37.0663],[143.9749,-37.0715],[143.9616,-37.1213],[143.9431,-37.1192],[143.9367,-37.1374],[143.9475,-37.1657],[143.9061,-37.1597],[143.8894,-37.1881],[143.9494,-37.1945],[143.9589,-37.2205],[144.0386,-37.2702],[144.0636,-37.2495],[144.0743,-37.1477],[144.1904,-37.1661],[144.1851,-37.1954],[144.2766,-37.2091],[144.2922,-37.1636]]]},"properties":{"sa4_code_2021":"202","sa4_name_2021":"Bendigo","state_code_2021":"2"}},{"type":"Feature","geometry":{"type":"MultiPolygon","coordinates":[[[[144.4983,-37.9744],[144.474,-37.9357],[144.4801,-37.8889],[144.4298,-37.8575],[144.4064,-37.8009],[144.3991,-37.8152],[144.362,-37.8108],[144.3544,-37.845],[144.3317,-37.8463],[144.2636,-37.8117],[144.1294,-37.7975],[144.0602,-37.7958],[144.0546,-37.8323],[143.9581,-37.8275],[143.9202,-37.8121],[143.9002,-37.7834],[143.8127,-37.7824],[143.8087,-37.8027],[143.7418,-37.7812],[143.6904,-37.8016],[143.6902,-37.8263],[143.6611,-37.8236],[143.6517,-37.854],[143.6632,-37.8702],[143.6361,-37.9269],[143.6651,-37.9305],[143.6546,-37.9885],[143.6371,-37.9716],[143.6221,-37.982],[143.6471,-37.9872],[143.6562,-38.0109],[143.6289,-38.0234],[143.8297,-38.0224],[143.8186,-38.0802],[143.8284,-38.0922],[143.8099,-38.1277],[143.9007,-38.1385],[143.9238,-38.1657],[143.9141,-38.1922],[143.8892,-38.2001],[143.8805,-38.2475],[143.8413,-38.2429],[143.8338,-38.291],[143.8788,-38.2762],[143.8349,-38.5106],[143.8553,-38.524],[143.8519,-38.5447],[143.8245,-38.5666],[143.9602,-38.5757],[143.9862,-38.5513],[143.9797,-38.5323],[144.0365,-38.4758],[144.1048,-38.4693],[144.1338,-38.4345],[144.254,-38.3955],[144.3323,-38.3233],[144.4283,-38.2817],[144.4999,-38.2905],[144.5084,-38.2748],[144.5387,-38.2716],[144.6139,-38.2923],[144.6202,-38.2759],[144.6722,-38.2653],[144.633,-38.2698],[144.6232,-38.2515],[144.6866,-38.1975],[144.7034,-38.2015],[144.6957,-38.2198],[144.7064,-38.2102],[144.7202,-38.1466],[144.6917,-38.1197],[144.6314,-38.1074],[144.558,-38.1549],[144.4807,-38.1645],[144.4428,-38.1495],[144.4256,-38.1238],[144.4162,-38.1554],[144.3561,-38.1384],[144.3616,-38.1051],[144.3895,-38.0767],[144.4449,-38.0918],[144.4787,-38.0767],[144.5068,-38.0915],[144.5152,-38.0461],[144.5587,-38.0375],[144.5919,-38.0052],[144.5475,-37.9719],[144.4983,-37.9744]]],[[[144.6858,-38.2458],[144.6877,-38.2454],[144.6842,-38.2446],[144.6858,-38.2458]]],[[[144.6665,-38.2586],[144.6663,-38.2571],[144.6619,-38.2589],[144.6665,-38.2586]]],[[[144.6682,-38.2579],[144.7021,-38.2434],[144.6788,-38.2506],[144.6784,-38.2377],[144.6682,-38.2579]]],[[[144.6378,-38.2672],[144.6389,-38.2674],[144.6385,-38.2667],[144.6378,-38.2672]]]]},"properties":{"sa4_code_2021":"203","sa4_name_2021":"Geelong","state_code_2021":"2"}},{"type":"Feature","geometry":{"type":"Polygon","coordinates":[[[146.5021,-35.9832],[146.468,-35.9846],[146.4542,-35.9622],[146.4433,-35.9762],[146.4219,-35.9657],[146.3991,-36.0072],[146.3806,-36.0129],[146.3876,-36.0356],[146.3692,-36.0508],[146.3389,-36.0264],[146.3291,-36.0431],[146.283,-36.0415],[146.2931,-36.0295],[146.2829,-36.011],[146.2729,-36.0266],[146.2572,-36.0121],[146.2197,-36.0369],[146.1773,-36.034],[146.1792,-36.0514],[146.1992,-36.047],[146.1967,-36.0856],[146.2152,-36.089],[146.2046,-36.126],[146.2436,-36.1386],[146.2288,-36.1671],[146.2454,-36.1677],[146.2367,-36.1906],[146.1311,-36.1868],[146.1314,-36.2551],[146.0369,-36.2551],[146.0309,-36.299],[145.7807,-36.2991],[145.7653,-36.3489],[145.7322,-36.3444],[145.7297,-36.3998],[145.7475,-36.4022],[145.7601,-36.4298],[145.7244,-36.4246],[145.7319,-36.499],[145.6316,-36.499],[145.6317,-36.5633],[145.3536,-36.5561],[145.3189,-36.6124],[145.3047,-36.6135],[145.3025,-36.6419],[145.205,-36.6548],[145.2217,-36.6872],[145.1857,-36.6863],[145.1784,-36.7006],[145.1685,-36.6753],[145.0874,-36.6755],[145.0435,-36.6507],[145.0426,-36.682],[145.0205,-36.682],[145.0171,-36.6688],[144.9867,-36.6997],[144.9322,-36.6997],[144.9319,-36.7479],[144.7947,-36.7507],[144.7848,-36.7805],[144.7985,-36.8326],[144.8536,-36.8803],[144.8043,-36.9259],[144.8063,-36.9556],[144.766,-36.9736],[144.7535,-36.963],[144.734,-36.9821],[144.7183,-36.9747],[144.6882,-36.9946],[144.6884,-37.011],[144.5454,-37.0132],[144.5345,-37.1102],[144.7154,-37.1003],[144.7352,-37.1265],[144.7265,-37.1596],[144.7103,-37.1595],[144.7161,-37.2088],[144.7038,-37.213],[144.8201,-37.2192],[144.8252,-37.2841],[144.8558,-37.2855],[144.8492,-37.3223],[144.8922,-37.3452],[145.0304,-37.3296],[145.0484,-37.3157],[145.0561,-37.2635],[145.1176,-37.2632],[145.1253,-37.2939],[145.2273,-37.2943],[145.2267,-37.3271],[145.2658,-37.3727],[145.2658,-37.4098],[145.4003,-37.4344],[145.4131,-37.4454],[145.3909,-37.4666],[145.4886,-37.4613],[145.4946,-37.4374],[145.5168,-37.4372],[145.5129,-37.4571],[145.5699,-37.4604],[145.5604,-37.5299],[145.5788,-37.5703],[145.618,-37.5723],[145.6759,-37.6242],[145.7373,-37.594],[145.7382,-37.5666],[145.756,-37.5743],[145.7654,-37.6168],[145.8126,-37.6298],[145.8122,-37.6623],[145.7925,-37.6601],[145.811,-37.6874],[145.7883,-37.7217],[145.846,-37.7557],[145.8785,-37.8184],[145.9257,-37.8298],[145.9175,-37.7775],[145.9436,-37.7582],[146.0386,-37.7745],[146.0891,-37.7538],[146.1338,-37.788],[146.1632,-37.7473],[146.1355,-37.7021],[146.1297,-37.6481],[146.1648,-37.623],[146.1588,-37.6008],[146.184,-37.5811],[146.2501,-37.6104],[146.2988,-37.5911],[146.3679,-37.6294],[146.394,-37.604],[146.435,-37.6192],[146.6472,-37.163],[146.6386,-37.1281],[146.6515,-37.12],[146.7176,-37.1588],[146.7634,-37.146],[146.8263,-37.2038],[147.337,-37.2755],[147.3845,-37.2039],[147.3315,-37.153],[147.3164,-37.1139],[147.3592,-37.1143],[147.3805,-37.0987],[147.3923,-37.0456],[147.3875,-37.0302],[147.35,-37.0364],[147.2633,-37.0067],[147.2893,-36.9052],[147.3417,-36.8618],[147.3333,-36.8299],[147.2829,-36.827],[147.2935,-36.811],[147.2679,-36.779],[147.2901,-36.766],[147.2966,-36.7339],[147.3801,-36.7507],[147.4585,-36.803],[147.4714,-36.7831],[147.5286,-36.7696],[147.5419,-36.7376],[147.9602,-36.6124],[148.1345,-36.7437],[148.2162,-36.6397],[148.2061,-36.587],[148.1607,-36.5798],[148.1507,-36.5584],[148.1343,-36.5674],[148.1244,-36.551],[148.1398,-36.5254],[148.1176,-36.4955],[148.1237,-36.463],[148.0876,-36.4519],[148.0803,-36.4221],[148.0375,-36.3901],[148.0589,-36.32],[148.035,-36.3106],[148.0261,-36.223],[148.0406,-36.207],[148.0218,-36.1765],[148.0377,-36.1408],[148.0044,-36.1401],[147.9906,-36.1211],[147.9992,-36.0987],[147.9802,-36.0866],[147.9997,-36.0462],[147.924,-36.0425],[147.9123,-35.9952],[147.8829,-36.0018],[147.8062,-35.9651],[147.7768,-35.9686],[147.7084,-35.9285],[147.6468,-35.946],[147.6014,-35.9791],[147.5491,-35.9645],[147.5477,-35.9786],[147.584,-35.9846],[147.5519,-36.0041],[147.5211,-35.9864],[147.5255,-35.9632],[147.4941,-35.9435],[147.4641,-35.9441],[147.4507,-35.9608],[147.4046,-35.9435],[147.3199,-36.061],[147.2852,-36.0394],[147.2063,-36.0501],[147.1645,-36.0308],[147.1444,-36.0378],[147.1234,-35.9945],[147.0981,-36.0102],[147.0954,-36.0527],[147.0618,-36.0662],[147.053,-36.1079],[147.0341,-36.1152],[147.0074,-36.0837],[146.9813,-36.0949],[146.9568,-36.0781],[146.9437,-36.116],[146.9268,-36.0972],[146.9078,-36.1113],[146.9069,-36.0849],[146.8806,-36.0875],[146.873,-36.0737],[146.8255,-36.0888],[146.8039,-36.0552],[146.7499,-36.0613],[146.7529,-36.0421],[146.7308,-36.0452],[146.7316,-36.0237],[146.6858,-36.0406],[146.6802,-36.0224],[146.656,-36.0263],[146.6509,-36.0077],[146.6143,-35.9965],[146.6125,-35.9729],[146.584,-35.9839],[146.5629,-35.9677],[146.5496,-35.9925],[146.5018,-35.9582],[146.5021,-35.9832]]]},"properties":{"sa4_code_2021":"204","sa4_name_2021":"Hume","state_code_2021":"2"}},{"type":"Feature","geometry":{"type":"MultiPolygon","coordinates":[[[[146.7793,-38.6461],[146.7949,-38.6255],[146.7847,-38.6228],[146.7994,-38.6287],[146.8156,-38.6118],[146.8866,-38.6144],[146.9255,-38.5942],[146.8835,-38.6344],[147.5084,-38.128],[147.7061,-37.9981],[147.8763,-37.9202],[148.1792,-37.8316],[148.3445,-37.8056],[148.6981,-37.8016],[148.7278,-37.8154],[148.7492,-37.797],[148.8087,-37.7864],[149.1242,-37.7773],[149.2467,-37.7805],[149.2755,-37.8038],[149.3404,-37.7769],[149.485,-37.7754],[149.5255,-37.7373],[149.5958,-37.7266],[149.6166,-37.7006],[149.6773,-37.6851],[149.7387,-37.585],[149.7752,-37.5578],[149.9066,-37.5429],[149.9762,-37.5052],[148.1949,-36.7963],[148.1825,-36.8049],[148.1563,-36.79],[148.1192,-36.8058],[148.0979,-36.7873],[148.1345,-36.7437],[147.9602,-36.6124],[147.5419,-36.7376],[147.5286,-36.7696],[147.4714,-36.7831],[147.4585,-36.803],[147.3801,-36.7507],[147.2966,-36.7339],[147.2901,-36.766],[147.2679,-36.779],[147.2935,-36.811],[147.2829,-36.827],[147.3333,-36.8299],[147.3417,-36.8618],[147.2893,-36.9052],[147.2633,-37.0067],[147.35,-37.0364],[147.3875,-37.0302],[147.3923,-37.0456],[147.3805,-37.0987],[147.3592,-37.1143],[147.3164,-37.1139],[147.3315,-37.153],[147.3845,-37.2039],[147.337,-37.2755],[146.8263,-37.2038],[146.7634,-37.146],[146.7188,-37.159],[146.6639,-37.1235],[146.6397,-37.1266],[146.6472,-37.163],[146.435,-37.6192],[146.394,-37.604],[146.3679,-37.6294],[146.2988,-37.5911],[146.2323,-37.6086],[146.1864,-37.5801],[146.1588,-37.6008],[146.1648,-37.623],[146.1297,-37.6481],[146.1355,-37.7021],[146.1632,-37.7473],[146.1338,-37.788],[146.0891,-37.7538],[146.0386,-37.7745],[145.9436,-37.7582],[145.9175,-37.7775],[145.9264,-37.8296],[145.8447,-37.7976],[145.7949,-37.8151],[145.8176,-37.8578],[145.7695,-37.8809],[145.7311,-37.9588],[145.7651,-38.0108],[145.7392,-38.1005],[145.7628,-38.1089],[145.7008,-38.2059],[145.7174,-38.2067],[145.7128,-38.2518],[145.7364,-38.249],[145.7327,-38.2894],[145.6124,-38.2856],[145.6057,-38.3325],[145.5537,-38.2936],[145.5418,-38.3094],[145.5207,-38.3067],[145.5153,-38.3378],[145.5421,-38.3374],[145.5525,-38.3524],[145.5348,-38.3979],[145.5047,-38.4167],[145.4165,-38.4069],[145.4338,-38.4349],[145.4177,-38.4714],[145.4345,-38.4936],[145.4197,-38.513],[145.3632,-38.5214],[145.3761,-38.538],[145.4837,-38.556],[145.5606,-38.6514],[145.6067,-38.6788],[145.6569,-38.6769],[145.7139,-38.6455],[145.7655,-38.6668],[145.8695,-38.7761],[145.9212,-38.9096],[146.0063,-38.8779],[145.9979,-38.8464],[146.0336,-38.8132],[146.1335,-38.8374],[146.2339,-38.9187],[146.2695,-38.973],[146.2673,-38.9912],[146.249,-38.996],[146.2743,-38.9964],[146.3047,-39.0394],[146.3286,-39.0278],[146.314,-39.0318],[146.3264,-39.0411],[146.3169,-39.0523],[146.3523,-39.0589],[146.3214,-39.0879],[146.3458,-39.1254],[146.3738,-39.1367],[146.4265,-39.13],[146.4416,-39.0898],[146.4253,-39.0835],[146.4311,-39.0655],[146.4833,-39.061],[146.4604,-39.0369],[146.4754,-39.0257],[146.4318,-39.011],[146.4457,-39.0037],[146.4361,-38.981],[146.451,-38.9479],[146.4893,-38.9105],[146.4679,-38.871],[146.4789,-38.7925],[146.438,-38.7789],[146.4149,-38.8521],[146.3526,-38.8682],[146.3231,-38.9036],[146.2926,-38.9046],[146.2927,-38.8765],[146.2703,-38.8601],[146.2728,-38.806],[146.233,-38.809],[146.2185,-38.7718],[146.1856,-38.7434],[146.1926,-38.7287],[146.2107,-38.7379],[146.192,-38.7262],[146.2292,-38.7012],[146.2121,-38.6929],[146.3388,-38.6907],[146.3318,-38.6811],[146.3508,-38.6729],[146.381,-38.6856],[146.3846,-38.7199],[146.4071,-38.7224],[146.4371,-38.6945],[146.4931,-38.6967],[146.4947,-38.6797],[146.5147,-38.6942],[146.5412,-38.6854],[146.5512,-38.7038],[146.5528,-38.6893],[146.5667,-38.6911],[146.5464,-38.6846],[146.5713,-38.6775],[146.5768,-38.6921],[146.5804,-38.6795],[146.5827,-38.6985],[146.5844,-38.6771],[146.641,-38.6689],[146.6531,-38.643],[146.6707,-38.6629],[146.6576,-38.6715],[146.6933,-38.6758],[146.7164,-38.661],[146.7129,-38.6478],[146.7417,-38.665],[146.7793,-38.6461]]],[[[145.1099,-38.5196],[145.1122,-38.5186],[145.1095,-38.5184],[145.1099,-38.5196]]],[[[145.114,-38.5188],[145.1149,-38.5183],[145.1136,-38.5186],[145.114,-38.5188]]],[[[145.3441,-38.5616],[145.3443,-38.5616],[145.3439,-38.5614],[145.3441,-38.5616]]],[[[145.3474,-38.5634],[145.3475,-38.5632],[145.3474,-38.5631],[145.3474,-38.5634]]],[[[145.3509,-38.5659],[145.3511,-38.5658],[145.3509,-38.5657],[145.3509,-38.5659]]],[[[145.2766,-38.3876],[145.2704,-38.4091],[145.2871,-38.3957],[145.3526,-38.42],[145.3859,-38.4067],[145.4061,-38.3728],[145.5034,-38.3533],[145.4524,-38.3069],[145.352,-38.3113],[145.2973,-38.282],[145.2766,-38.3876]]],[[[145.3661,-38.4164],[145.3721,-38.4176],[145.3688,-38.4113],[145.3661,-38.4164]]],[[[145.2891,-38.4551],[145.2965,-38.4551],[145.2935,-38.454],[145.2891,-38.4551]]],[[[145.3481,-38.4218],[145.3483,-38.4216],[145.3481,-38.4214],[145.3481,-38.4218]]],[[[145.2475,-38.5048],[145.308,-38.5186],[145.3611,-38.5658],[145.3409,-38.535],[145.3628,-38.512],[145.2973,-38.5064],[145.3056,-38.4854],[145.2907,-38.4805],[145.3104,-38.4606],[145.2732,-38.4603],[145.2986,-38.4515],[145.2001,-38.451],[145.1654,-38.4654],[145.1471,-38.5032],[145.1162,-38.5184],[145.1707,-38.5096],[145.2212,-38.53],[145.2475,-38.5048]]],[[[145.3378,-38.4938],[145.333,-38.4995],[145.3461,-38.5087],[145.3378,-38.4938]]],[[[146.2929,-39.1578],[146.2949,-39.159],[146.2961,-39.1565],[146.2929,-39.1578]]],[[[146.2985,-39.1556],[146.2993,-39.1554],[146.2995,-39.1546],[146.2985,-39.1556]]],[[[146.3023,-39.1542],[146.3029,-39.1539],[146.3022,-39.1532],[146.3023,-39.1542]]],[[[146.3562,-39.1388],[146.3595,-39.1408],[146.3683,-39.1391],[146.3562,-39.1388]]],[[[146.2239,-38.9697],[146.2339,-38.9679],[146.224,-38.9667],[146.2239,-38.9697]]],[[[146.3105,-39.1573],[146.3154,-39.1566],[146.3089,-39.15],[146.3105,-39.1573]]],[[[146.3047,-39.1519],[146.3056,-39.1517],[146.3045,-39.1512],[146.3047,-39.1519]]],[[[146.2314,-39.0885],[146.2367,-39.0979],[146.2222,-39.0713],[146.2314,-39.0885]]],[[[146.2392,-39.0191],[146.242,-39.0295],[146.2462,-39.0244],[146.2392,-39.0191]]],[[[146.2374,-39.1093],[146.2414,-39.108],[146.2366,-39.101],[146.2374,-39.1093]]],[[[146.2345,-39.1144],[146.2371,-39.1178],[146.2393,-39.1142],[146.2345,-39.1144]]],[[[146.3217,-39.1446],[146.3292,-39.1394],[146.3121,-39.1348],[146.3217,-39.1446]]],[[[146.2403,-39.1157],[146.2437,-39.117],[146.2423,-39.114],[146.2403,-39.1157]]],[[[146.2768,-38.7724],[146.2797,-38.7716],[146.2769,-38.7711],[146.2768,-38.7724]]],[[[146.3679,-38.8419],[146.3707,-38.8438],[146.3709,-38.8411],[146.3679,-38.8419]]],[[[146.6798,-38.955],[146.6843,-38.9538],[146.6808,-38.9526],[146.6798,-38.955]]],[[[146.7051,-38.9517],[146.707,-38.9496],[146.7038,-38.9493],[146.7051,-38.9517]]],[[[146.6763,-38.9418],[146.679,-38.9408],[146.6737,-38.9377],[146.6763,-38.9418]]],[[[146.6621,-38.9221],[146.6606,-38.9269],[146.6653,-38.926],[146.6621,-38.9221]]],[[[146.6219,-38.7502],[146.6426,-38.7472],[146.6405,-38.7442],[146.6219,-38.7502]]],[[[146.5444,-38.7438],[146.5534,-38.7411],[146.5459,-38.7397],[146.5444,-38.7438]]],[[[146.5263,-38.7416],[146.5285,-38.7409],[146.527,-38.7401],[146.5263,-38.7416]]],[[[146.5419,-38.7461],[146.5392,-38.7477],[146.5418,-38.7472],[146.5419,-38.7461]]],[[[146.54,-38.7461],[146.5405,-38.7461],[146.5413,-38.7451],[146.54,-38.7461]]],[[[146.7014,-38.7027],[146.7044,-38.7022],[146.7027,-38.7015],[146.7014,-38.7027]]],[[[146.6924,-38.7088],[146.7,-38.7096],[146.6948,-38.707],[146.6924,-38.7088]]],[[[146.6297,-38.7241],[146.6526,-38.7272],[146.6693,-38.7183],[146.6297,-38.7241]]],[[[146.5517,-38.704],[146.5617,-38.7051],[146.5537,-38.7024],[146.5517,-38.704]]],[[[146.565,-38.7141],[146.5676,-38.7159],[146.5724,-38.715],[146.565,-38.7141]]],[[[146.5733,-38.7009],[146.5712,-38.7048],[146.5744,-38.7042],[146.5733,-38.7009]]],[[[146.5288,-38.7129],[146.5317,-38.7159],[146.5365,-38.7164],[146.5288,-38.7129]]],[[[146.6892,-38.7105],[146.6886,-38.7089],[146.6869,-38.711],[146.6892,-38.7105]]],[[[146.6872,-38.7],[146.69,-38.7008],[146.6875,-38.6993],[146.6872,-38.7]]],[[[146.5791,-38.7021],[146.5798,-38.7027],[146.5807,-38.7021],[146.5791,-38.7021]]],[[[146.5766,-38.7074],[146.5768,-38.7069],[146.5764,-38.7072],[146.5766,-38.7074]]],[[[146.6196,-38.702],[146.5853,-38.7157],[146.6028,-38.7269],[146.601,-38.7165],[146.6263,-38.7246],[146.6776,-38.7083],[146.6196,-38.702]]],[[[146.7078,-38.71],[146.6794,-38.7271],[146.7322,-38.6963],[146.7078,-38.71]]],[[[146.5675,-38.6972],[146.5631,-38.6972],[146.5712,-38.6983],[146.5675,-38.6972]]],[[[146.69,-38.697],[146.6881,-38.6966],[146.6869,-38.6988],[146.69,-38.697]]],[[[146.5771,-38.6988],[146.5777,-38.7011],[146.5783,-38.6997],[146.5771,-38.6988]]],[[[146.6688,-38.6826],[146.6834,-38.6897],[146.6854,-38.6779],[146.6688,-38.6826]]],[[[146.626,-38.6921],[146.6218,-38.6948],[146.6341,-38.6972],[146.626,-38.6921]]],[[[146.6087,-38.6844],[146.5985,-38.6857],[146.607,-38.6864],[146.6087,-38.6844]]],[[[146.6512,-38.6729],[146.6556,-38.6729],[146.6549,-38.6695],[146.6512,-38.6729]]],[[[146.594,-38.6886],[146.5877,-38.6906],[146.5893,-38.692],[146.594,-38.6886]]],[[[146.6534,-38.6615],[146.658,-38.6588],[146.6555,-38.6587],[146.6534,-38.6615]]],[[[146.6422,-38.6863],[146.6449,-38.6878],[146.6511,-38.6835],[146.6422,-38.6863]]],[[[146.651,-38.6862],[146.6576,-38.6859],[146.6524,-38.6854],[146.651,-38.6862]]],[[[146.6806,-38.6731],[146.6845,-38.6749],[146.6819,-38.6729],[146.6806,-38.6731]]],[[[146.6267,-38.68],[146.6292,-38.6801],[146.631,-38.6789],[146.6267,-38.68]]],[[[146.6076,-38.6802],[146.6059,-38.6812],[146.6079,-38.6817],[146.6076,-38.6802]]],[[[146.6887,-38.6867],[146.6899,-38.6851],[146.6889,-38.6853],[146.6887,-38.6867]]],[[[146.5698,-38.6911],[146.5711,-38.6907],[146.5709,-38.6898],[146.5698,-38.6911]]],[[[146.6883,-38.6815],[146.6917,-38.6807],[146.6885,-38.6812],[146.6883,-38.6815]]],[[[146.6855,-38.6859],[146.6859,-38.6862],[146.686,-38.6851],[146.6855,-38.6859]],[[146.8741,-38.6319],[146.8722,-38.6322],[146.8787,-38.6284],[146.8741,-38.6319]]],[[[146.8789,-38.6104],[146.8816,-38.6105],[146.8803,-38.6098],[146.8789,-38.6104]]],[[[149.9058,-37.5644],[149.9185,-37.5684],[149.9048,-37.5483],[149.9058,-37.5644]]],[[[149.8442,-37.5556],[149.8432,-37.557],[149.8466,-37.557],[149.8442,-37.5556]]],[[[146.5678,-38.7423],[146.5009,-38.763],[146.5416,-38.7277],[146.5082,-38.7372],[146.5096,-38.7185],[146.4646,-38.7391],[146.4948,-38.7748],[146.5453,-38.7909],[146.5976,-38.7595],[146.6677,-38.7478],[146.6226,-38.7582],[146.5804,-38.735],[146.5678,-38.7423]]],[[[146.4629,-38.7137],[146.4387,-38.7278],[146.5019,-38.7163],[146.4629,-38.7137]]],[[[146.514,-38.9102],[146.5058,-38.9134],[146.512,-38.9137],[146.514,-38.9102]]],[[[146.5099,-38.7243],[146.5168,-38.7211],[146.5096,-38.7217],[146.5099,-38.7243]]],[[[146.4639,-38.736],[146.4641,-38.7378],[146.466,-38.7368],[146.4639,-38.736]]],[[[146.3939,-38.8064],[146.3926,-38.8074],[146.3943,-38.807],[146.3939,-38.8064]]],[[[146.8521,-38.6343],[146.8801,-38.6155],[146.8191,-38.6132],[146.7911,-38.633],[146.8199,-38.6506],[146.8521,-38.6343]]],[[[146.843,-38.6633],[146.8284,-38.6795],[146.879,-38.6381],[146.8355,-38.6542],[146.8576,-38.652],[146.843,-38.6633]]],[[[146.8136,-38.6767],[146.7529,-38.6897],[146.8263,-38.6842],[146.8136,-38.6767]]],[[[146.7241,-38.6773],[146.7395,-38.6729],[146.7278,-38.6612],[146.7099,-38.6766],[146.7241,-38.6773]]],[[[146.6966,-38.6873],[146.7157,-38.6871],[146.7082,-38.6767],[146.6966,-38.6873]]],[[[146.8154,-38.6591],[146.7941,-38.6568],[146.786,-38.6691],[146.8154,-38.6591]]],[[[146.7633,-38.6591],[146.7744,-38.6598],[146.7561,-38.6546],[146.7633,-38.6591]]],[[[146.7407,-38.6671],[146.7381,-38.6689],[146.7481,-38.669],[146.7407,-38.6671]]],[[[146.7316,-38.667],[146.7372,-38.667],[146.729,-38.6617],[146.7316,-38.667]],[[146.7776,-38.658],[146.783,-38.6581],[146.7729,-38.658],[146.7776,-38.658]]],[[[146.7456,-38.678],[146.7449,-38.6746],[146.7397,-38.6791],[146.7456,-38.678]],[[146.7581,-38.6749],[146.7536,-38.6755],[146.7625,-38.6731],[146.7581,-38.6749]]],[[[146.8032,-38.6661],[146.8094,-38.6661],[146.8217,-38.66],[146.8032,-38.6661]]],[[[146.7249,-38.6845],[146.719,-38.6852],[146.722,-38.6862],[146.7249,-38.6845]]],[[[146.7279,-38.6846],[146.7296,-38.6861],[146.7328,-38.6851],[146.7279,-38.6846]]],[[[146.8202,-38.6648],[146.8286,-38.661],[146.8275,-38.6606],[146.8202,-38.6648]]],[[[146.7569,-38.6723],[146.7609,-38.6701],[146.7589,-38.6701],[146.7569,-38.6723]]],[[[146.7275,-38.6788],[146.7299,-38.6785],[146.7294,-38.6769],[146.7275,-38.6788]]],[[[146.7513,-38.6746],[146.7484,-38.6766],[146.7507,-38.6763],[146.7513,-38.6746]]],[[[146.7482,-38.6636],[146.7468,-38.664],[146.7498,-38.6642],[146.7482,-38.6636]]],[[[146.7959,-38.667],[146.7998,-38.6662],[146.7978,-38.6659],[146.7959,-38.667]]],[[[146.7935,-38.6667],[146.7946,-38.6671],[146.7951,-38.6665],[146.7935,-38.6667]]],[[[146.7457,-38.6724],[146.7457,-38.6732],[146.7471,-38.6716],[146.7457,-38.6724]]],[[[146.8229,-38.6779],[146.8239,-38.6801],[146.8229,-38.6775],[146.8229,-38.6779]]],[[[146.7335,-38.6782],[146.7349,-38.6781],[146.7343,-38.6777],[146.7335,-38.6782]]],[[[146.8025,-38.6761],[146.8043,-38.6768],[146.804,-38.6763],[146.8025,-38.6761]]],[[[146.8106,-38.6667],[146.8114,-38.6673],[146.8109,-38.6664],[146.8106,-38.6667]],[[146.7087,-38.6762],[146.7077,-38.6763],[146.7104,-38.6758],[146.7087,-38.6762]]],[[[146.7328,-38.6823],[146.7337,-38.6821],[146.7338,-38.6817],[146.7328,-38.6823]]],[[[146.8529,-38.6363],[146.8533,-38.6356],[146.8528,-38.6359],[146.8529,-38.6363]]],[[[146.8127,-38.6675],[146.8132,-38.6676],[146.8125,-38.6673],[146.8127,-38.6675]]]]},"properties":{"sa4_code_2021":"205","sa4_name_2021":"Latrobe - Gippsland","state_code_2021":"2"}},{"type":"Feature","geometry":{"type":"Polygon","coordinates":[[[145.0206,-37.7544],[144.9808,-37.7503],[144.9829,-37.736],[144.8929,-37.7346],[144.8889,-37.7619],[144.9165,-37.798],[144.8984,-37.8412],[144.9633,-37.8555],[144.985,-37.891],[145.0105,-37.8602],[145.0277,-37.8663],[145.0327,-37.8374],[144.9993,-37.8054],[145.0211,-37.8029],[145.0132,-37.7857],[145.0452,-37.7844],[145.0206,-37.7544]]]},"properties":{"sa4_code_2021":"206","sa4_name_2021":"Melbourne - Inner","state_code_2021":"2"}},{"type":"Feature","geometry":{"type":"Polygon","coordinates":[[[145.1623,-37.7377],[145.0826,-37.7514],[145.0674,-37.7835],[145.0133,-37.7856],[145.0211,-37.8029],[144.9994,-37.8057],[145.0731,-37.8758],[145.0922,-37.8719],[145.0951,-37.8533],[145.1692,-37.862],[145.1569,-37.8458],[145.1841,-37.7654],[145.1765,-37.7351],[145.1623,-37.7377]]]},"properties":{"sa4_code_2021":"207","sa4_name_2021":"Melbourne - Inner East","state_code_2021":"2"}},{"type":"Feature","geometry":{"type":"Polygon","coordinates":[[[145.0735,-37.9986],[145.1228,-38.085],[145.1487,-38.0834],[145.1563,-38.0674],[145.1335,-38.0254],[145.1447,-37.9909],[145.1189,-37.9878],[145.1123,-37.9575],[145.0795,-37.9388],[145.0922,-37.8719],[145.0692,-37.8744],[145.0327,-37.8374],[145.0277,-37.8663],[145.0105,-37.8602],[144.985,-37.891],[144.9855,-37.9262],[145.0308,-37.9946],[145.0735,-37.9986]]]},"properties":{"sa4_code_2021":"208","sa4_name_2021":"Melbourne - Inner South","state_code_2021":"2"}},{"type":"Feature","geometry":{"type":"Polygon","coordinates":[[[145.0552,-37.2865],[145.0304,-37.3296],[144.9911,-37.3413],[144.9211,-37.3327],[144.8951,-37.4244],[144.8918,-37.4609],[144.9051,-37.4683],[144.8807,-37.5013],[144.9772,-37.5137],[144.9538,-37.5451],[144.9653,-37.5735],[144.9465,-37.6074],[144.9763,-37.6501],[144.9806,-37.7499],[145.0314,-37.7557],[145.0382,-37.7835],[145.0674,-37.7835],[145.0781,-37.7541],[145.1129,-37.7553],[145.123,-37.7404],[145.2423,-37.736],[145.2349,-37.7208],[145.2678,-37.7033],[145.2727,-37.7161],[145.2923,-37.7024],[145.3124,-37.7156],[145.3539,-37.6439],[145.3664,-37.5451],[145.4035,-37.5271],[145.4699,-37.5577],[145.5315,-37.5569],[145.5606,-37.5922],[145.5732,-37.5863],[145.56,-37.5162],[145.5699,-37.4604],[145.5129,-37.4571],[145.5168,-37.4372],[145.4946,-37.4374],[145.4886,-37.4613],[145.3909,-37.4666],[145.4131,-37.4454],[145.4003,-37.4344],[145.2658,-37.4098],[145.2658,-37.3727],[145.2267,-37.3271],[145.2273,-37.2943],[145.1253,-37.2939],[145.1176,-37.2632],[145.0561,-37.2635],[145.0552,-37.2865]]]},"properties":{"sa4_code_2021":"209","sa4_name_2021":"Melbourne - North East","state_code_2021":"2"}},{"type":"Feature","geometry":{"type":"Polygon","coordinates":[[[144.95,-37.5113],[144.8808,-37.5022],[144.9051,-37.4685],[144.8918,-37.4609],[144.8951,-37.4244],[144.9212,-37.3633],[144.9178,-37.348],[144.8492,-37.3223],[144.8558,-37.2855],[144.8252,-37.2841],[144.8201,-37.2192],[144.7038,-37.213],[144.7161,-37.1836],[144.6937,-37.1751],[144.6588,-37.1808],[144.6497,-37.2071],[144.6277,-37.2153],[144.6489,-37.2214],[144.5919,-37.2481],[144.6269,-37.2653],[144.6246,-37.2832],[144.6602,-37.293],[144.6343,-37.3363],[144.6044,-37.3355],[144.6003,-37.3596],[144.5759,-37.3589],[144.5616,-37.3855],[144.5455,-37.3828],[144.5129,-37.4151],[144.4782,-37.4142],[144.4577,-37.5446],[144.6268,-37.56],[144.6328,-37.5901],[144.6569,-37.5939],[144.6541,-37.6377],[144.6678,-37.6472],[144.82,-37.6829],[144.8017,-37.7044],[144.8607,-37.7761],[144.8889,-37.7619],[144.8929,-37.7346],[144.983,-37.7358],[144.9763,-37.6501],[144.9465,-37.6074],[144.9653,-37.5735],[144.9538,-37.5451],[144.9772,-37.5137],[144.95,-37.5113]]]},"properties":{"sa4_code_2021":"210","sa4_name_2021":"Melbourne - North West","state_code_2021":"2"}},{"type":"Feature","geometry":{"type":"Polygon","coordinates":[[[145.3002,-37.9657],[145.3834,-37.9747],[145.3837,-37.9381],[145.4387,-37.9146],[145.4506,-37.8819],[145.4667,-37.912],[145.5077,-37.8998],[145.5269,-37.8853],[145.5191,-37.8578],[145.5685,-37.8977],[145.6279,-37.904],[145.6314,-37.9185],[145.6707,-37.9071],[145.6863,-37.881],[145.7483,-37.9075],[145.7695,-37.8809],[145.8042,-37.8735],[145.8175,-37.8568],[145.7949,-37.8151],[145.8784,-37.7994],[145.846,-37.7557],[145.7881,-37.7215],[145.811,-37.6874],[145.7925,-37.6601],[145.8122,-37.6623],[145.8125,-37.6296],[145.7658,-37.6172],[145.7561,-37.5744],[145.7398,-37.5663],[145.7373,-37.594],[145.6759,-37.6242],[145.5999,-37.5661],[145.5626,-37.5932],[145.5315,-37.5569],[145.4699,-37.5577],[145.4182,-37.5264],[145.3664,-37.5451],[145.3584,-37.6275],[145.331,-37.6922],[145.3171,-37.692],[145.322,-37.7075],[145.3027,-37.7167],[145.287,-37.7032],[145.2834,-37.7189],[145.2678,-37.7033],[145.2298,-37.7388],[145.1812,-37.73],[145.1832,-37.7744],[145.1569,-37.8458],[145.1957,-37.8652],[145.2064,-37.9312],[145.227,-37.9506],[145.2796,-37.9476],[145.3002,-37.9657]]]},"properties":{"sa4_code_2021":"211","sa4_name_2021":"Melbourne - Outer East","state_code_2021":"2"}},{"type":"Feature","geometry":{"type":"Polygon","coordinates":[[[145.3726,-38.2225],[145.4118,-38.228],[145.4384,-38.2144],[145.489,-38.2334],[145.5207,-38.3067],[145.5418,-38.3094],[145.5537,-38.2936],[145.6031,-38.332],[145.6124,-38.2856],[145.7327,-38.2894],[145.7364,-38.249],[145.7128,-38.2518],[145.7174,-38.2067],[145.7008,-38.2059],[145.7628,-38.1089],[145.7392,-38.1005],[145.7544,-38.0792],[145.7625,-37.9907],[145.7311,-37.9598],[145.7651,-37.8986],[145.7481,-37.9075],[145.6869,-37.8808],[145.6707,-37.9071],[145.626,-37.9176],[145.6279,-37.904],[145.569,-37.898],[145.5191,-37.8578],[145.5256,-37.8873],[145.4667,-37.912],[145.4504,-37.882],[145.4387,-37.9146],[145.3835,-37.9383],[145.3792,-37.975],[145.2912,-37.9646],[145.2796,-37.9476],[145.2292,-37.9521],[145.2064,-37.9312],[145.1957,-37.8652],[145.0951,-37.8533],[145.0795,-37.9388],[145.1123,-37.9575],[145.1189,-37.9878],[145.1447,-37.9909],[145.1335,-38.0254],[145.1503,-38.0673],[145.2396,-38.0777],[145.2154,-38.2087],[145.2715,-38.2229],[145.2741,-38.2441],[145.2955,-38.2483],[145.3248,-38.2422],[145.3442,-38.2144],[145.3726,-38.2225]]]},"properties":{"sa4_code_2021":"212","sa4_name_2021":"Melbourne - South East","state_code_2021":"2"}},{"type":"Feature","geometry":{"type":"Polygon","coordinates":[[[144.8608,-37.7761],[144.8017,-37.7044],[144.82,-37.6829],[144.6678,-37.6472],[144.6541,-37.6377],[144.6569,-37.5939],[144.6328,-37.5901],[144.6268,-37.56],[144.4593,-37.5464],[144.453,-37.5871],[144.4207,-37.5928],[144.4232,-37.6136],[144.3848,-37.6067],[144.4021,-37.6397],[144.3368,-37.6204],[144.3338,-37.6379],[144.3583,-37.6505],[144.3457,-37.6581],[144.3926,-37.6962],[144.4027,-37.7278],[144.4627,-37.706],[144.4648,-37.692],[144.4867,-37.6951],[144.4668,-37.8391],[144.449,-37.8371],[144.4441,-37.864],[144.4808,-37.8903],[144.474,-37.9357],[144.4956,-37.9743],[144.5475,-37.9719],[144.5802,-38.0025],[144.6516,-38.0016],[144.7356,-37.9431],[144.7935,-37.927],[144.8196,-37.8725],[144.8686,-37.8587],[144.9155,-37.8655],[144.8952,-37.8487],[144.9056,-37.8517],[144.8972,-37.832],[144.9165,-37.7984],[144.9018,-37.7656],[144.882,-37.7559],[144.8608,-37.7761]]]},"properties":{"sa4_code_2021":"213","sa4_name_2021":"Melbourne - West","state_code_2021":"2"}},{"type":"Feature","geometry":{"type":"MultiPolygon","coordinates":[[[[145.1671,-38.0687],[145.1238,-38.0822],[145.1141,-38.1496],[145.0324,-38.2127],[145.0256,-38.2534],[144.9828,-38.2964],[144.9922,-38.3119],[144.9577,-38.3355],[144.8285,-38.3702],[144.7667,-38.3564],[144.7341,-38.3225],[144.6517,-38.3038],[144.8386,-38.4303],[144.8867,-38.4772],[144.8883,-38.4994],[145.0313,-38.4871],[145.0502,-38.43],[145.1298,-38.3905],[145.2344,-38.4097],[145.2152,-38.3831],[145.184,-38.3746],[145.2219,-38.3779],[145.193,-38.2965],[145.223,-38.3065],[145.2257,-38.2724],[145.2617,-38.2424],[145.2542,-38.2236],[145.215,-38.2071],[145.2396,-38.0777],[145.1671,-38.0687]]],[[[144.8883,-38.5026],[144.888,-38.503],[144.8886,-38.5028],[144.8883,-38.5026]]],[[[144.8888,-38.5005],[144.8895,-38.5008],[144.8897,-38.5001],[144.8888,-38.5005]]],[[[144.8858,-38.4952],[144.8859,-38.4951],[144.8857,-38.4951],[144.8858,-38.4952]]],[[[144.8858,-38.4947],[144.886,-38.4945],[144.8858,-38.4946],[144.8858,-38.4947]]],[[[144.7399,-38.3561],[144.7401,-38.3557],[144.7399,-38.3559],[144.7399,-38.3561]]],[[[144.7404,-38.356],[144.7411,-38.3559],[144.7407,-38.3558],[144.7404,-38.356]]],[[[144.886,-38.4974],[144.8861,-38.4972],[144.8858,-38.4973],[144.886,-38.4974]]],[[[144.8857,-38.497],[144.8858,-38.4969],[144.8856,-38.4969],[144.8857,-38.497]]],[[[144.8856,-38.4957],[144.8856,-38.4956],[144.8854,-38.4956],[144.8856,-38.4957]]],[[[144.7876,-38.3936],[144.7878,-38.3936],[144.7878,-38.3934],[144.7876,-38.3936]]],[[[144.7403,-38.3585],[144.7403,-38.3584],[144.7402,-38.3585],[144.7403,-38.3585]]],[[[144.8851,-38.4964],[144.8853,-38.496],[144.8847,-38.4959],[144.8851,-38.4964]]],[[[144.8845,-38.496],[144.8848,-38.4956],[144.8845,-38.4957],[144.8845,-38.496]]],[[[144.7401,-38.3573],[144.7404,-38.3572],[144.7401,-38.357],[144.7401,-38.3573]]],[[[144.7407,-38.3584],[144.7407,-38.3582],[144.7405,-38.3582],[144.7407,-38.3584]]],[[[144.7314,-38.3503],[144.7314,-38.3504],[144.7315,-38.3504],[144.7314,-38.3503]]],[[[144.734,-38.3525],[144.7344,-38.3523],[144.7341,-38.3523],[144.734,-38.3525]]],[[[144.7361,-38.3545],[144.7363,-38.3544],[144.7361,-38.3543],[144.7361,-38.3545]]],[[[144.9068,-38.4936],[144.9073,-38.4937],[144.9074,-38.4934],[144.9068,-38.4936]]],[[[144.9061,-38.4934],[144.9069,-38.493],[144.9062,-38.4931],[144.9061,-38.4934]]],[[[144.9072,-38.4929],[144.907,-38.4928],[144.9074,-38.4932],[144.9072,-38.4929]]],[[[144.8944,-38.4936],[144.8945,-38.4933],[144.8943,-38.4933],[144.8944,-38.4936]]],[[[145.2129,-38.3289],[145.2094,-38.3268],[145.2085,-38.3329],[145.2129,-38.3289]]]]},"properties":{"sa4_code_2021":"214","sa4_name_2021":"Mornington Peninsula","state_code_2021":"2"}},{"type":"Feature","geometry":{"type":"Polygon","coordinates":[[[142.7676,-34.5782],[142.7458,-34.5823],[142.7592,-34.6001],[142.7228,-34.5924],[142.6893,-34.6168],[142.7089,-34.6218],[142.6892,-34.6519],[142.7104,-34.6767],[142.6789,-34.6802],[142.699,-34.7251],[142.6786,-34.7223],[142.6787,-34.7392],[142.6614,-34.7217],[142.6183,-34.7288],[142.6205,-34.7571],[142.6464,-34.7634],[142.6322,-34.7841],[142.5567,-34.7754],[142.4996,-34.7392],[142.5189,-34.7029],[142.4997,-34.7031],[142.5137,-34.6922],[142.4974,-34.6743],[142.5159,-34.6637],[142.4756,-34.6726],[142.4836,-34.6364],[142.4524,-34.6337],[142.4683,-34.6129],[142.468,-34.5643],[142.4488,-34.5595],[142.4516,-34.5843],[142.4261,-34.5623],[142.4077,-34.568],[142.4056,-34.5415],[142.3902,-34.5491],[142.3677,-34.5304],[142.3999,-34.5223],[142.3749,-34.5153],[142.3947,-34.4935],[142.3596,-34.4988],[142.3842,-34.4781],[142.3533,-34.4696],[142.3679,-34.4354],[142.351,-34.3966],[142.3739,-34.3882],[142.3783,-34.3648],[142.3635,-34.3622],[142.3898,-34.3628],[142.3968,-34.3381],[142.2839,-34.3266],[142.2989,-34.3057],[142.2861,-34.2965],[142.2359,-34.307],[142.2488,-34.285],[142.2323,-34.2553],[142.2437,-34.2099],[142.2191,-34.1811],[142.1661,-34.1829],[142.1659,-34.1523],[142.1203,-34.1567],[142.1196,-34.1749],[142.0828,-34.1735],[142.0653,-34.1506],[142.0756,-34.1314],[142.0296,-34.1261],[142.0378,-34.0998],[142.0133,-34.1054],[142.0222,-34.1252],[141.9782,-34.1126],[141.9704,-34.1361],[141.945,-34.1195],[141.933,-34.1382],[141.9226,-34.1146],[141.9007,-34.1112],[141.8766,-34.1374],[141.7769,-34.1169],[141.7779,-34.1018],[141.7569,-34.1121],[141.7618,-34.0975],[141.7297,-34.0909],[141.7203,-34.1146],[141.7074,-34.0961],[141.6774,-34.1012],[141.6327,-34.1215],[141.628,-34.1454],[141.6118,-34.139],[141.6185,-34.1563],[141.5845,-34.1514],[141.603,-34.1623],[141.5894,-34.1774],[141.6033,-34.1912],[141.5335,-34.1914],[141.5339,-34.2107],[141.5101,-34.2165],[141.5187,-34.1809],[141.495,-34.1546],[141.4445,-34.168],[141.4339,-34.1459],[141.4074,-34.1464],[141.4082,-34.1279],[141.3881,-34.1347],[141.359,-34.1107],[141.3249,-34.1388],[141.3175,-34.1124],[141.2596,-34.0781],[141.2425,-34.0873],[141.2418,-34.0613],[141.2285,-34.0737],[141.2059,-34.0617],[141.1862,-34.092],[141.1747,-34.0733],[141.1537,-34.0821],[141.1531,-34.0545],[141.1203,-34.0649],[141.0942,-34.0507],[141.0892,-34.0767],[141.0656,-34.0501],[141.0425,-34.0611],[141.0343,-34.0357],[141.0233,-34.0597],[141.0019,-34.0391],[141.0123,-34.0247],[140.9884,-34.0308],[140.9637,-33.9806],[140.9732,-37.3582],[141.0973,-37.4499],[141.1682,-37.4199],[141.2638,-37.4301],[141.2805,-37.3945],[141.2209,-37.3646],[141.221,-37.3487],[141.4315,-37.3723],[141.4315,-37.2975],[141.5314,-37.2976],[141.4896,-37.2467],[141.4917,-37.2202],[141.5762,-37.1881],[141.5972,-37.1612],[141.6148,-37.1695],[141.6724,-37.1523],[141.7246,-37.188],[141.8008,-37.1667],[141.8109,-37.1773],[141.8402,-37.1682],[141.8405,-37.1525],[141.9089,-37.1348],[141.9111,-37.1135],[141.9356,-37.1708],[141.9128,-37.2024],[141.9998,-37.2243],[142.0794,-37.2236],[142.0923,-37.1709],[142.1091,-37.1627],[142.1145,-37.1121],[142.1875,-37.1128],[142.2063,-37.0873],[142.241,-37.1499],[142.4231,-37.2601],[142.5164,-37.2932],[142.478,-37.4009],[142.3791,-37.5106],[142.3535,-37.598],[142.5871,-37.627],[142.6188,-37.6468],[142.5902,-37.7651],[142.6147,-37.8103],[142.6731,-37.8166],[142.6648,-37.83],[142.7017,-37.8347],[142.7577,-37.8127],[142.8397,-37.8221],[142.8422,-37.8079],[142.8614,-37.8065],[142.8795,-37.8084],[142.8794,-37.8366],[143.0072,-37.7656],[143.0131,-37.7869],[143.0353,-37.7928],[143.0314,-37.8145],[143.0762,-37.8157],[143.1058,-37.8335],[143.0952,-37.8186],[143.1083,-37.7785],[143.1655,-37.7653],[143.1807,-37.7315],[143.0721,-37.7195],[143.0854,-37.7026],[143.1213,-37.7075],[143.1561,-37.6326],[143.1745,-37.6351],[143.1831,-37.594],[143.1532,-37.5734],[143.193,-37.5265],[143.1793,-37.5246],[143.1973,-37.4263],[143.222,-37.4144],[143.209,-37.3764],[143.2556,-37.3576],[143.2411,-37.3143],[143.2256,-37.3144],[143.2266,-37.2911],[143.2736,-37.284],[143.2318,-37.2077],[143.2012,-37.2322],[143.1619,-37.2287],[143.1454,-37.1853],[143.0881,-37.1976],[143.0898,-37.1775],[143.063,-37.1671],[143.0669,-37.1474],[143.0965,-37.1497],[143.0862,-37.1248],[143.1011,-37.1013],[143.1027,-37.0015],[143.0871,-36.9772],[143.1052,-36.9788],[143.0899,-36.9629],[143.107,-36.9044],[143.2393,-36.9018],[143.3534,-36.9146],[143.3728,-36.934],[143.472,-36.9368],[143.4674,-36.9115],[143.5103,-36.8687],[143.5069,-36.8079],[143.4596,-36.7466],[143.5012,-36.6753],[143.4863,-36.6257],[143.4385,-36.6146],[143.4212,-36.5571],[143.3339,-36.5124],[143.3152,-36.4769],[143.4068,-36.4999],[143.4122,-36.4677],[143.4305,-36.4695],[143.4451,-36.446],[143.4389,-36.3684],[143.4785,-36.3761],[143.4821,-36.295],[143.514,-36.2951],[143.508,-36.265],[143.5687,-36.2222],[143.5317,-36.2033],[143.5367,-36.174],[143.5135,-36.1733],[143.5116,-36.1013],[143.4822,-36.1017],[143.4757,-35.9753],[143.6181,-35.9694],[143.6178,-35.9349],[143.7282,-35.9325],[143.7284,-35.9059],[143.874,-35.9161],[143.8617,-35.9349],[143.9415,-35.9528],[144.185,-35.9467],[144.1873,-35.9076],[144.2493,-35.9301],[144.3356,-35.9342],[144.3534,-35.9195],[144.342,-35.9066],[144.351,-35.8909],[144.4167,-35.898],[144.4019,-35.8686],[144.4113,-35.8588],[144.3814,-35.8524],[144.3731,-35.8373],[144.3866,-35.8361],[144.3722,-35.832],[144.3841,-35.8196],[144.3648,-35.8209],[144.3768,-35.793],[144.3623,-35.7958],[144.3491,-35.7671],[144.2953,-35.7544],[144.2961,-35.7371],[144.2645,-35.7514],[144.2481,-35.721],[144.216,-35.7065],[144.2135,-35.6867],[144.1624,-35.6715],[144.1526,-35.6427],[144.1315,-35.6408],[144.105,-35.5908],[144.0623,-35.5768],[144.0392,-35.5493],[144.0096,-35.5633],[143.9899,-35.5547],[143.9967,-35.5359],[143.9747,-35.5326],[143.9701,-35.5001],[143.9334,-35.5066],[143.8588,-35.48],[143.8554,-35.4618],[143.813,-35.4463],[143.818,-35.4375],[143.7629,-35.4231],[143.7688,-35.4018],[143.751,-35.3878],[143.7092,-35.3925],[143.6842,-35.3682],[143.6423,-35.401],[143.633,-35.3835],[143.6204,-35.3877],[143.5984,-35.3521],[143.5621,-35.3372],[143.5909,-35.2817],[143.5637,-35.2435],[143.581,-35.22],[143.5708,-35.2069],[143.4715,-35.2193],[143.4495,-35.1891],[143.3911,-35.1889],[143.3906,-35.1451],[143.3409,-35.0957],[143.3391,-35.0682],[143.3508,-35.0647],[143.3221,-35.0367],[143.336,-35.0374],[143.3381,-35.0109],[143.3186,-34.993],[143.3172,-34.9534],[143.3427,-34.9329],[143.3213,-34.8887],[143.3526,-34.8582],[143.355,-34.846],[143.3412,-34.8463],[143.3596,-34.8169],[143.3493,-34.7924],[143.3088,-34.7799],[143.2767,-34.7923],[143.273,-34.7764],[143.2521,-34.7728],[143.274,-34.7527],[143.2489,-34.7579],[143.2407,-34.7455],[143.2244,-34.7587],[143.2188,-34.7295],[143.2009,-34.7334],[143.181,-34.7095],[143.1654,-34.7181],[143.1617,-34.6979],[143.1474,-34.7148],[143.118,-34.703],[143.1276,-34.6927],[143.1071,-34.7016],[143.1211,-34.6875],[143.1123,-34.6809],[143.0928,-34.7013],[143.0708,-34.6784],[143.0548,-34.6989],[143.0404,-34.6859],[143.0395,-34.7026],[143.0325,-34.6829],[143.0102,-34.6937],[143.0173,-34.6737],[142.9893,-34.6626],[142.9727,-34.6952],[142.9593,-34.665],[142.9238,-34.6479],[142.8873,-34.68],[142.8606,-34.6652],[142.8719,-34.6503],[142.8552,-34.6395],[142.8682,-34.6273],[142.8407,-34.6258],[142.8238,-34.6005],[142.8033,-34.6071],[142.8106,-34.5893],[142.7869,-34.5894],[142.8054,-34.5539],[142.7897,-34.5469],[142.77,-34.5689],[142.7838,-34.5791],[142.7676,-34.5782]]]},"properties":{"sa4_code_2021":"215","sa4_name_2021":"North West","state_code_2021":"2"}},{"type":"Feature","geometry":{"type":"Polygon","coordinates":[[[146.0116,-36.0057],[145.9716,-36.0156],[145.9457,-35.9838],[145.9537,-35.9616],[145.928,-35.9739],[145.9029,-35.9689],[145.9032,-35.9526],[145.854,-35.9599],[145.8586,-35.9748],[145.8275,-35.9754],[145.8122,-35.9918],[145.7782,-35.9602],[145.7325,-35.96],[145.7161,-35.9502],[145.7208,-35.9347],[145.6739,-35.9259],[145.6791,-35.9168],[145.6204,-35.884],[145.626,-35.8625],[145.6009,-35.8749],[145.5932,-35.8491],[145.558,-35.8282],[145.5628,-35.8134],[145.5388,-35.8218],[145.5357,-35.802],[145.5217,-35.8187],[145.4721,-35.8092],[145.4625,-35.8269],[145.4199,-35.8282],[145.4106,-35.8486],[145.3552,-35.8671],[145.3245,-35.8507],[145.2584,-35.8506],[145.2464,-35.8303],[145.1536,-35.8431],[145.1588,-35.8308],[145.1142,-35.8205],[144.9682,-35.8654],[144.975,-35.8838],[144.9489,-35.9317],[144.9574,-35.9609],[144.931,-35.9685],[144.9236,-35.989],[144.9618,-36.0182],[144.9816,-36.0726],[144.9483,-36.0829],[144.9326,-36.067],[144.8633,-36.0592],[144.8419,-36.1006],[144.8102,-36.1023],[144.8085,-36.1233],[144.7986,-36.1132],[144.778,-36.1299],[144.7716,-36.116],[144.7184,-36.1136],[144.719,-36.0859],[144.6842,-36.0955],[144.6887,-36.0613],[144.655,-36.0753],[144.6532,-36.0532],[144.6327,-36.0481],[144.6175,-36.0771],[144.6155,-36.0316],[144.5833,-36.039],[144.5634,-36.0078],[144.5158,-35.9944],[144.5152,-35.9655],[144.494,-35.9686],[144.4662,-35.9333],[144.4397,-35.9318],[144.4158,-35.9091],[144.4244,-35.9002],[144.3654,-35.8855],[144.3436,-35.8943],[144.3534,-35.9195],[144.3356,-35.9342],[144.2837,-35.9237],[144.2593,-35.9466],[144.2914,-35.9844],[144.2799,-36.0133],[144.3178,-36.0498],[144.3039,-36.0613],[144.3187,-36.1012],[144.2892,-36.1292],[144.2668,-36.2248],[144.2817,-36.3277],[144.3318,-36.3277],[144.3301,-36.3853],[144.3583,-36.3852],[144.3694,-36.4078],[144.4157,-36.3963],[144.4302,-36.4113],[144.6682,-36.4066],[144.6743,-36.4255],[144.6587,-36.4405],[144.6715,-36.4571],[144.6206,-36.4813],[144.6103,-36.5168],[144.626,-36.5274],[144.6084,-36.529],[144.6105,-36.5559],[144.5872,-36.5579],[144.5984,-36.5745],[144.5897,-36.5948],[144.5254,-36.6598],[144.5348,-36.688],[144.518,-36.7255],[144.6671,-36.7254],[144.6662,-36.7626],[144.9319,-36.7479],[144.9322,-36.6997],[144.9867,-36.6997],[145.0171,-36.6688],[145.0205,-36.682],[145.0426,-36.682],[145.0435,-36.6507],[145.0874,-36.6755],[145.1685,-36.6753],[145.1784,-36.7006],[145.1857,-36.6863],[145.2217,-36.6872],[145.205,-36.6548],[145.3025,-36.6419],[145.3047,-36.6135],[145.3189,-36.6124],[145.3536,-36.5561],[145.6317,-36.5633],[145.6316,-36.499],[145.7319,-36.499],[145.7244,-36.4246],[145.7601,-36.4298],[145.7475,-36.4022],[145.7297,-36.3998],[145.7322,-36.3444],[145.7653,-36.3489],[145.7807,-36.2991],[146.0309,-36.299],[146.0369,-36.2551],[146.1314,-36.2551],[146.1311,-36.1868],[146.2445,-36.182],[146.2452,-36.1674],[146.2288,-36.1671],[146.2413,-36.1333],[146.2046,-36.126],[146.2152,-36.089],[146.1967,-36.0856],[146.1992,-36.047],[146.1785,-36.0508],[146.1739,-36.0197],[146.1315,-36.0195],[146.1348,-36.0025],[146.1187,-36.018],[146.1116,-36.0066],[146.0895,-36.0107],[146.0932,-36.0212],[146.0617,-36.0156],[146.0518,-35.9954],[146.0116,-36.0057]]]},"properties":{"sa4_code_2021":"216","sa4_name_2021":"Shepparton","state_code_2021":"2"}},{"type":"Feature","geometry":{"type":"MultiPolygon","coordinates":[[[[143.1544,-38.7056],[143.2331,-38.7665],[143.3566,-38.7539],[143.4287,-38.7834],[143.5109,-38.8576],[143.5541,-38.8557],[143.616,-38.7955],[143.666,-38.7794],[143.6815,-38.7375],[143.8404,-38.691],[143.9461,-38.5794],[143.8245,-38.5666],[143.8519,-38.5447],[143.8553,-38.524],[143.8349,-38.5106],[143.8788,-38.2762],[143.8338,-38.291],[143.8413,-38.2429],[143.8805,-38.2475],[143.8892,-38.2001],[143.9149,-38.1915],[143.9228,-38.1634],[143.9007,-38.1385],[143.8099,-38.1277],[143.8284,-38.0922],[143.8186,-38.0802],[143.8297,-38.0224],[143.6289,-38.0234],[143.6562,-38.0075],[143.6118,-37.9588],[143.4794,-37.9408],[143.4771,-37.9244],[143.4431,-37.9061],[143.4407,-37.7848],[143.4647,-37.6589],[143.3539,-37.6704],[143.3041,-37.7566],[143.2719,-37.7534],[143.2671,-37.7335],[143.2419,-37.7467],[143.1804,-37.7316],[143.1655,-37.7653],[143.1083,-37.7785],[143.0952,-37.8186],[143.1058,-37.8335],[143.0762,-37.8157],[143.0314,-37.8145],[143.0353,-37.7928],[143.0131,-37.7869],[143.0072,-37.7656],[142.8794,-37.8366],[142.8795,-37.8084],[142.8614,-37.8065],[142.8422,-37.8079],[142.8397,-37.8221],[142.7577,-37.8127],[142.7017,-37.8347],[142.6147,-37.8103],[142.5902,-37.7651],[142.6188,-37.6468],[142.5871,-37.627],[142.3535,-37.598],[142.3791,-37.5106],[142.478,-37.4009],[142.5164,-37.2932],[142.4231,-37.2601],[142.241,-37.1499],[142.2063,-37.0873],[142.1875,-37.1128],[142.1145,-37.1121],[142.1091,-37.1627],[142.0923,-37.1709],[142.0794,-37.2236],[141.9998,-37.2243],[141.9128,-37.2024],[141.9356,-37.1708],[141.9111,-37.1135],[141.9089,-37.1348],[141.8405,-37.1525],[141.8402,-37.1682],[141.8109,-37.1773],[141.8008,-37.1667],[141.7246,-37.188],[141.6724,-37.1523],[141.6148,-37.1695],[141.5972,-37.1612],[141.5762,-37.1881],[141.4917,-37.2202],[141.4896,-37.2467],[141.5314,-37.2976],[141.4315,-37.2975],[141.4315,-37.3723],[141.2181,-37.3509],[141.2803,-37.3941],[141.2638,-37.4301],[141.1682,-37.4199],[141.0973,-37.4499],[140.9732,-37.3582],[140.9658,-38.056],[141.1501,-38.1268],[141.2953,-38.2206],[141.3921,-38.3197],[141.3977,-38.3386],[141.3655,-38.3653],[141.3743,-38.3868],[141.4132,-38.3963],[141.4071,-38.3691],[141.461,-38.3621],[141.5192,-38.39],[141.5213,-38.4147],[141.5428,-38.433],[141.5731,-38.3897],[141.6264,-38.4063],[141.628,-38.3935],[141.6503,-38.393],[141.6016,-38.3132],[141.6795,-38.2679],[141.742,-38.2531],[141.9295,-38.2782],[142.1458,-38.3915],[142.2449,-38.3965],[142.2615,-38.3646],[142.3722,-38.3494],[142.4717,-38.4043],[142.4922,-38.3939],[142.5633,-38.422],[142.8576,-38.6053],[142.937,-38.6273],[143.0212,-38.6259],[143.1544,-38.7056]]],[[[142.0087,-38.4172],[141.9935,-38.4174],[141.9988,-38.4255],[142.0087,-38.4172]]],[[[143.0474,-38.6415],[143.0482,-38.6411],[143.0469,-38.6411],[143.0474,-38.6415]]],[[[143.0618,-38.6499],[143.0659,-38.6487],[143.0635,-38.6485],[143.0618,-38.6499]]],[[[143.0688,-38.6497],[143.0709,-38.6484],[143.0687,-38.6494],[143.0688,-38.6497]]],[[[143.072,-38.6506],[143.0732,-38.6495],[143.0721,-38.6501],[143.072,-38.6506]]],[[[143.0567,-38.6448],[143.0571,-38.6445],[143.0567,-38.6445],[143.0567,-38.6448]]],[[[143.0219,-38.6302],[143.0226,-38.6291],[143.0218,-38.6294],[143.0219,-38.6302]]],[[[143.4026,-38.7815],[143.4029,-38.7811],[143.4026,-38.7811],[143.4026,-38.7815]]],[[[143.2651,-38.7701],[143.266,-38.7698],[143.2651,-38.7696],[143.2651,-38.7701]]],[[[143.0743,-38.6512],[143.0746,-38.6509],[143.0742,-38.6508],[143.0743,-38.6512]]],[[[143.0762,-38.6518],[143.0768,-38.6513],[143.0765,-38.6513],[143.0762,-38.6518]]],[[[143.0754,-38.6523],[143.0758,-38.6521],[143.0754,-38.6521],[143.0754,-38.6523]]],[[[143.0754,-38.651],[143.0753,-38.6513],[143.0756,-38.6512],[143.0754,-38.651]]],[[[143.0837,-38.6537],[143.0835,-38.654],[143.0837,-38.654],[143.0837,-38.6537]]],[[[143.0816,-38.6549],[143.0813,-38.6555],[143.0821,-38.6556],[143.0816,-38.6549]]],[[[143.0882,-38.6586],[143.0885,-38.6581],[143.0878,-38.658],[143.0882,-38.6586]]],[[[143.0952,-38.6612],[143.0956,-38.6613],[143.0958,-38.6609],[143.0952,-38.6612]]],[[[143.1007,-38.6635],[143.1011,-38.6634],[143.1007,-38.6633],[143.1007,-38.6635]]],[[[143.103,-38.6648],[143.1031,-38.6646],[143.1027,-38.6645],[143.103,-38.6648]]],[[[143.108,-38.6685],[143.1082,-38.6683],[143.1078,-38.6685],[143.108,-38.6685]]],[[[143.1072,-38.6685],[143.1073,-38.6683],[143.107,-38.6685],[143.1072,-38.6685]]],[[[143.0996,-38.6626],[143.0998,-38.6625],[143.0997,-38.6624],[143.0996,-38.6626]]]]},"properties":{"sa4_code_2021":"217","sa4_name_2021":"Warrnambool and South West","state_code_2021":"2"}},{"type":"Feature","geometry":null,"properties":{"sa4_code_2021":"297","sa4_name_2021":"Migratory - Offshore - Shipping (Vic.)","state_code_2021":"2","shape":null}},{"type":"Feature","geometry":null,"properties":{"sa4_code_2021":"299","sa4_name_2021":"No usual address (Vic.)","state_code_2021":"2","shape":null}}]}