{"type": "FeatureCollection", "features": [{"type": "Feature", "geometry": {"type": "MultiPolygon", "coordinates": [[[[146.317215, -39.142063], [146.317871, -39.139786], [146.331177, -39.14711], [146.323791, -39.148815], [146.317215, -39.142063]]], [[[146.228668, -39.075016], [146.243103, -39.093594], [146.23761, -39.100822], [146.228516, -39.090584], [146.228668, -39.075016]]], [[[146.240097, -39.024849], [146.244034, -39.020569], [146.245468, -39.032272], [146.242859, -39.031307], [146.240097, -39.024849]]], [[[146.296432, -38.84745], [146.300903, -38.855083], [146.290771, -38.861092], [146.289276, -38.852131], [146.296432, -38.84745]]], [[[146.906067, -38.610889], [146.9207, -38.608322], [146.886642, -38.633545], [146.888901, -38.62281], [146.906067, -38.610889]]], [[[146.855103, -38.648712], [146.873871, -38.644146], [146.835556, -38.676399], [146.84697, -38.660976], [146.836578, -38.655342], [146.855103, -38.648712]]], [[[142.006363, -38.412544], [142.012665, -38.413525], [141.992981, -38.421177], [141.992081, -38.417168], [142.006363, -38.412544]]], [[[142.243881, -38.393627], [142.249588, -38.390697], [142.257385, -38.391548], [142.246735, -38.400654], [142.243881, -38.393627]]], [[[145.254257, -38.451099], [145.310989, -38.459667], [145.292862, -38.482807], [145.306412, -38.486134], [145.2995, -38.505665], [145.358765, -38.51038], [145.341644, -38.537216], [145.360672, -38.564278], [145.27182, -38.505409], [145.219345, -38.526501], [145.120575, -38.511948], [145.147491, -38.502819], [145.166763, -38.467583], [145.254257, -38.451099]]], [[[145.378967, -38.317913], [145.454544, -38.310848], [145.500961, -38.358726], [145.406647, -38.375446], [145.384949, -38.408825], [145.351501, -38.422653], [145.291641, -38.398895], [145.271957, -38.410534], [145.293228, -38.288918], [145.378967, -38.317913]]], [[[146.544662, -38.691456], [146.552551, -38.691349], [146.559662, -38.708645], [146.542114, -38.69989], [146.544662, -38.691456]]], [[[146.805634, -38.655846], [146.809357, -38.658871], [146.828293, -38.660957], [146.789322, -38.667534], [146.805634, -38.655846]]], [[[146.809265, -38.676964], [146.818268, -38.678917], [146.756378, -38.692047], [146.762329, -38.687321], [146.809265, -38.676964]]], [[[146.749649, -38.692871], [146.750137, -38.697231], [146.672379, -38.738266], [146.7146, -38.705433], [146.749649, -38.692871]]], [[[146.677139, -38.683598], [146.680359, -38.683186], [146.684021, -38.676136], [146.683731, -38.688732], [146.677139, -38.683598]]], [[[146.724075, -38.673962], [146.736481, -38.667263], [146.700546, -38.694469], [146.706955, -38.682423], [146.724075, -38.673962]]], [[[146.666275, -38.749172], [146.662888, -38.744312], [146.669876, -38.744873], [146.668793, -38.754017], [146.642517, -38.765316], [146.624771, -38.761387], [146.666275, -38.749172]]], [[[146.509811, -38.752979], [146.519928, -38.75795], [146.492096, -38.760029], [146.51181, -38.766754], [146.582092, -38.737839], [146.642899, -38.749058], [146.54483, -38.791088], [146.493484, -38.77425], [146.466034, -38.739223], [146.507019, -38.724762], [146.500961, -38.745052], [146.540512, -38.728954], [146.509811, -38.752979]]], [[[146.666931, -38.720783], [146.65448, -38.728386], [146.641235, -38.725265], [146.658112, -38.7234], [146.666931, -38.720783]]], [[[146.481552, -38.714966], [146.502502, -38.718506], [146.440903, -38.727821], [146.453262, -38.713135], [146.481552, -38.714966]]], [[[146.624832, -38.709625], [146.660889, -38.704201], [146.677979, -38.710636], [146.634995, -38.724663], [146.591492, -38.711185], [146.610199, -38.698872], [146.624832, -38.709625]]], [[[146.843506, -38.616722], [146.879044, -38.619934], [146.821777, -38.65102], [146.790894, -38.6348], [146.843506, -38.616722]]], [[[144.682571, -38.253555], [144.691895, -38.247192], [144.704208, -38.250778], [144.662659, -38.256611], [144.68132, -38.243427], [144.682571, -38.253555]]], [[[145.299713, -38.22261], [145.307465, -38.239082], [145.300842, -38.25198], [145.280273, -38.243656], [145.299713, -38.22261]]], [[[149.910126, -37.546558], [149.91951, -37.556076], [149.920578, -37.566612], [149.907516, -37.560802], [149.910126, -37.546558]]], [[[147.763763, -37.901005], [147.775665, -37.894199], [147.76741, -37.912941], [147.727371, -37.929893], [147.763763, -37.901005]]], [[[142.607924, -38.450134], [142.526962, -38.406425], [142.458527, -38.398293], [142.372818, -38.350708], [142.260529, -38.366917], [142.238388, -38.39587], [142.142471, -38.392601], [141.942047, -38.284584], [141.760635, -38.255096], [141.680344, -38.267921], [141.601501, -38.31316], [141.607697, -38.351627], [141.647766, -38.392658], [141.623428, -38.407387], [141.573227, -38.391502], [141.546692, -38.430435], [141.509338, -38.382175], [141.444519, -38.360817], [141.408127, -38.369995], [141.404861, -38.399204], [141.368347, -38.377586], [141.397598, -38.338612], [141.375412, -38.297832], [141.264221, -38.197422], [141.142044, -38.126793], [140.964406, -38.060941], [140.964383, -33.982209], [140.98643, -34.0304], [141.010559, -34.025728], [141.000884, -34.040646], [141.018882, -34.053893], [141.036209, -34.038106], [141.04248, -34.062856], [141.064036, -34.051018], [141.073472, -34.064917], [141.093956, -34.051469], [141.118726, -34.065932], [141.152235, -34.056082], [141.152915, -34.083322], [141.173787, -34.074645], [141.185155, -34.092962], [141.204516, -34.062983], [141.227633, -34.074752], [141.240532, -34.062555], [141.242172, -34.088839], [141.258057, -34.079025], [141.317704, -34.113426], [141.323804, -34.139461], [141.35714, -34.111592], [141.387206, -34.135448], [141.407532, -34.128553], [141.40796, -34.148421], [141.432457, -34.146412], [141.444649, -34.169277], [141.49577, -34.156353], [141.518294, -34.182512], [141.508479, -34.217149], [141.532204, -34.211563], [141.532078, -34.19251], [141.600795, -34.192314], [141.587521, -34.177886], [141.59873, -34.159033], [141.582379, -34.152555], [141.617312, -34.156682], [141.610625, -34.139276], [141.627243, -34.145345], [141.630842, -34.122032], [141.675886, -34.102086], [141.706765, -34.096636], [141.719194, -34.114942], [141.729168, -34.091839], [141.760623, -34.097773], [141.756104, -34.112481], [141.777609, -34.10269], [141.775637, -34.117436], [141.840154, -34.132856], [141.875509, -34.135697], [141.883521, -34.11569], [141.921031, -34.114948], [141.933044, -34.138965], [141.944059, -34.119958], [141.968346, -34.13698], [141.976684, -34.113468], [142.020881, -34.125861], [142.010753, -34.10651], [142.035641, -34.100327], [142.029704, -34.127773], [142.073961, -34.131836], [142.06472, -34.14934], [142.081503, -34.174178], [142.117717, -34.175556], [142.119013, -34.157159], [142.164373, -34.152971], [142.165502, -34.183538], [142.218468, -34.181795], [142.228854, -34.209085], [142.242674, -34.209391], [142.231478, -34.256799], [142.248296, -34.286887], [142.234874, -34.307925], [142.284914, -34.297426], [142.298482, -34.307036], [142.282963, -34.327291], [142.396403, -34.339728], [142.387841, -34.365314], [142.371022, -34.360043], [142.363001, -34.362998], [142.377437, -34.366328], [142.372438, -34.390146], [142.350015, -34.398037], [142.366884, -34.437152], [142.352561, -34.470802], [142.382772, -34.478499], [142.358857, -34.499784], [142.391931, -34.493985], [142.37455, -34.517096], [142.399691, -34.524014], [142.367236, -34.53167], [142.388176, -34.549883], [142.404732, -34.54257], [142.407096, -34.56949], [142.424803, -34.563334], [142.450596, -34.585238], [142.446916, -34.559631], [142.467079, -34.565556], [142.467872, -34.614537], [142.45201, -34.635204], [142.483513, -34.636722], [142.472895, -34.672431], [142.497239, -34.670667], [142.513509, -34.69362], [142.49862, -34.703665], [142.518841, -34.704251], [142.49966, -34.740416], [142.555412, -34.776519], [142.632071, -34.784546], [142.643615, -34.764918], [142.618348, -34.75936], [142.616524, -34.729843], [142.660424, -34.722584], [142.677292, -34.73959], [142.677409, -34.722763], [142.696876, -34.725984], [142.677029, -34.680993], [142.708733, -34.677169], [142.687451, -34.652977], [142.707091, -34.622037], [142.687518, -34.617506], [142.702121, -34.614173], [142.700479, -34.598343], [142.760579, -34.598991], [142.74676, -34.577996], [142.781578, -34.58049], [142.768566, -34.569811], [142.789953, -34.547017], [142.810029, -34.562464], [142.786409, -34.590168], [142.809505, -34.589589], [142.804604, -34.608934], [142.822214, -34.600773], [142.840488, -34.626706], [142.867619, -34.628861], [142.854768, -34.640229], [142.870906, -34.6513], [142.859576, -34.665984], [142.885501, -34.680632], [142.922743, -34.649007], [142.958004, -34.666038], [142.97056, -34.69586], [142.988001, -34.663604], [143.015714, -34.673762], [143.010688, -34.695192], [143.032139, -34.684414], [143.038317, -34.703263], [143.038873, -34.687204], [143.053524, -34.69977], [143.070444, -34.679679], [143.089836, -34.702224], [143.111471, -34.681711], [143.120441, -34.688697], [143.106512, -34.702294], [143.126548, -34.693465], [143.117125, -34.703472], [143.145532, -34.715031], [143.161649, -34.698907], [143.165067, -34.718902], [143.180323, -34.710531], [143.201163, -34.734831], [143.218205, -34.729952], [143.223308, -34.759279], [143.239706, -34.746494], [143.247275, -34.758487], [143.264414, -34.749455], [143.272863, -34.753768], [143.251624, -34.774064], [143.275667, -34.793135], [143.307787, -34.781034], [143.348701, -34.793979], [143.358578, -34.81904], [143.340633, -34.847484], [143.351647, -34.859674], [143.320421, -34.889826], [143.341673, -34.933599], [143.316597, -34.954078], [143.317959, -34.994107], [143.337046, -35.012186], [143.334916, -35.039075], [143.321164, -35.038228], [143.335571, -35.044631], [143.345755, -35.105686], [143.35964, -35.104139], [143.390085, -35.146764], [143.390296, -35.190118], [143.448174, -35.189751], [143.470336, -35.220356], [143.570155, -35.208303], [143.580039, -35.221446], [143.562989, -35.24414], [143.589854, -35.283037], [143.561439, -35.339027], [143.597427, -35.353844], [143.618588, -35.388598], [143.641189, -35.402271], [143.682858, -35.369805], [143.708306, -35.394185], [143.744629, -35.38782], [143.763718, -35.394378], [143.762206, -35.424544], [143.817061, -35.439219], [143.858431, -35.481509], [143.932039, -35.507329], [143.969136, -35.501379], [143.974138, -35.53415], [143.996005, -35.537395], [143.989631, -35.555957], [144.009507, -35.564518], [144.038463, -35.550731], [144.061842, -35.577919], [144.104593, -35.59282], [144.116759, -35.627929], [144.151344, -35.643608], [144.162378, -35.672759], [144.219874, -35.693688], [144.215399, -35.707873], [144.247119, -35.722006], [144.265755, -35.753985], [144.295516, -35.738501], [144.29433, -35.755303], [144.347866, -35.768384], [144.36174, -35.797214], [144.376426, -35.795456], [144.363801, -35.822519], [144.383351, -35.820906], [144.371635, -35.833918], [144.381331, -35.853698], [144.410298, -35.859897], [144.407131, -35.904906], [144.423631, -35.901182], [144.416308, -35.911367], [144.46616, -35.934989], [144.493382, -35.969982], [144.5013, -35.959185], [144.49976, -35.971355], [144.519898, -35.971259], [144.516066, -35.996598], [144.563345, -36.009464], [144.59034, -36.044451], [144.615369, -36.033448], [144.615983, -36.078097], [144.631751, -36.049418], [144.652716, -36.055124], [144.652974, -36.07635], [144.688526, -36.063054], [144.68358, -36.096996], [144.718182, -36.087302], [144.725823, -36.11889], [144.739661, -36.108726], [144.776181, -36.130738], [144.797035, -36.114631], [144.806563, -36.124614], [144.808693, -36.103757], [144.840563, -36.102041], [144.862196, -36.060663], [144.931308, -36.068381], [144.948143, -36.084514], [144.980437, -36.073689], [144.981439, -36.050985], [144.922549, -35.983347], [144.955354, -35.962374], [144.947426, -35.932948], [144.973191, -35.885334], [144.966525, -35.866948], [144.990775, -35.853562], [145.126256, -35.821769], [145.158171, -35.832446], [145.152615, -35.843756], [145.245975, -35.831848], [145.257357, -35.85173], [145.322571, -35.851925], [145.354194, -35.868228], [145.408304, -35.849994], [145.417881, -35.829182], [145.461185, -35.827701], [145.470697, -35.809854], [145.520116, -35.820034], [145.533133, -35.803761], [145.538012, -35.823403], [145.561805, -35.814733], [145.556689, -35.828975], [145.592804, -35.850815], [145.59942, -35.875798], [145.624754, -35.863604], [145.619253, -35.885121], [145.677857, -35.91811], [145.672746, -35.926953], [145.696644, -35.92201], [145.696856, -35.937996], [145.721365, -35.937211], [145.715966, -35.951571], [145.778235, -35.96169], [145.808776, -35.992403], [145.857363, -35.976088], [145.85357, -35.960549], [145.900778, -35.953384], [145.902347, -35.969823], [145.948331, -35.973317], [145.970502, -36.016806], [146.034384, -35.990421], [146.111733, -36.005081], [146.118139, -36.019002], [146.13341, -36.003489], [146.13054, -36.020472], [146.172186, -36.020376], [146.183708, -36.042999], [146.19881, -36.028571], [146.202965, -36.040214], [146.241256, -36.030006], [146.255624, -36.013183], [146.271454, -36.027596], [146.273265, -36.013902], [146.281979, -36.012421], [146.282834, -36.043207], [146.327335, -36.044459], [146.337066, -36.027426], [146.367377, -36.051817], [146.420213, -35.967056], [146.442296, -35.977433], [146.453177, -35.963473], [146.465995, -35.985387], [146.497497, -35.992349], [146.500478, -35.959214], [146.547759, -35.993505], [146.560712, -35.969994], [146.582785, -35.984908], [146.611605, -35.974114], [146.613703, -35.998101], [146.649561, -36.009479], [146.654566, -36.027688], [146.680274, -36.024554], [146.68223, -36.040706], [146.730628, -36.024854], [146.730245, -36.046874], [146.751909, -36.043173], [146.748026, -36.062371], [146.802333, -36.056259], [146.824582, -36.072108], [146.824186, -36.08994], [146.871526, -36.074844], [146.87956, -36.088491], [146.905696, -36.086028], [146.906679, -36.112529], [146.926376, -36.098296], [146.942205, -36.116904], [146.954955, -36.07921], [146.980154, -36.095544], [147.006576, -36.085104], [147.033916, -36.115944], [147.114671, -36.004492], [147.145544, -36.035934], [147.208191, -36.050832], [147.280979, -36.042124], [147.321586, -36.059403], [147.356006, -35.991611], [147.400049, -35.947447], [147.44985, -35.957224], [147.49309, -35.944909], [147.549884, -36.005465], [147.582406, -35.985574], [147.546367, -35.980255], [147.547779, -35.965959], [147.600364, -35.980379], [147.645173, -35.947476], [147.706684, -35.929918], [147.775317, -35.969827], [147.806707, -35.967063], [147.882255, -36.003233], [147.911925, -35.996729], [147.923234, -36.043979], [147.998931, -36.047845], [147.979443, -36.088329], [147.998294, -36.100117], [147.990348, -36.123936], [148.000688, -36.141567], [148.036873, -36.142706], [148.020856, -36.177703], [148.039837, -36.20897], [148.025146, -36.224936], [148.034301, -36.312389], [148.058253, -36.321203], [148.036886, -36.391998], [148.079101, -36.423886], [148.086126, -36.453441], [148.123205, -36.466115], [148.131851, -36.567954], [148.149579, -36.559923], [148.159454, -36.581123], [148.188631, -36.5785], [148.216116, -36.599993], [148.201366, -36.612875], [148.219027, -36.627055], [148.197609, -36.673177], [148.16832, -36.71466], [148.129412, -36.736299], [148.096421, -36.788683], [148.107543, -36.802442], [148.193789, -36.797871], [149.979767, -37.504002], [149.909119, -37.538776], [149.779663, -37.556042], [149.801422, -37.533569], [149.789993, -37.521313], [149.811218, -37.485321], [149.774796, -37.490528], [149.777496, -37.514111], [149.741104, -37.52137], [149.751862, -37.494209], [149.720032, -37.499348], [149.681168, -37.461452], [149.689026, -37.484531], [149.677643, -37.491978], [149.700088, -37.492901], [149.69632, -37.508987], [149.720306, -37.516083], [149.697144, -37.524109], [149.728989, -37.519661], [149.758728, -37.542965], [149.766708, -37.571995], [149.731171, -37.598724], [149.674683, -37.684105], [149.518463, -37.746269], [149.5, -37.724422], [149.506104, -37.748436], [149.48999, -37.773094], [149.324402, -37.775951], [149.272736, -37.801277], [149.250595, -37.781712], [149.146652, -37.774757], [149.138123, -37.726673], [149.113571, -37.753616], [149.133408, -37.778038], [149.025223, -37.780628], [148.987732, -37.744579], [148.946396, -37.774765], [149.010788, -37.780464], [148.803345, -37.787605], [148.729858, -37.812531], [148.700363, -37.800438], [148.553177, -37.803596], [148.519958, -37.783901], [148.528778, -37.758724], [148.512451, -37.784363], [148.532974, -37.804981], [148.273453, -37.817429], [148.115112, -37.85144], [148.14299, -37.811386], [148.135544, -37.793972], [148.098969, -37.842682], [148.088013, -37.839211], [148.097031, -37.826176], [148.069046, -37.819897], [148.085312, -37.863495], [147.958542, -37.903358], [147.977112, -37.89106], [147.955719, -37.892345], [147.968536, -37.8759], [147.923477, -37.872955], [147.853683, -37.895306], [147.823395, -37.88942], [147.814957, -37.860729], [147.792206, -37.852123], [147.717178, -37.845036], [147.67395, -37.8647], [147.668671, -37.843807], [147.651016, -37.84713], [147.657684, -37.873528], [147.680389, -37.885597], [147.736664, -37.86097], [147.688171, -37.888397], [147.722443, -37.900299], [147.726593, -37.920032], [147.687561, -37.920475], [147.709396, -37.935741], [147.547821, -38.031101], [147.513992, -38.027405], [147.514816, -38.007015], [147.482666, -38.032654], [147.454025, -38.030586], [147.454208, -38.084667], [147.578552, -38.053555], [147.669479, -37.966652], [147.712265, -37.968529], [147.619431, -38.034363], [147.722794, -37.987614], [147.736618, -37.963406], [147.75798, -37.968346], [147.897781, -37.912712], [147.763885, -37.954403], [147.763107, -37.942482], [147.822205, -37.92952], [147.827896, -37.90411], [147.939774, -37.89938], [147.743393, -37.981323], [147.64035, -38.042763], [147.076324, -38.468616], [146.929932, -38.599049], [146.888779, -38.614105], [146.813828, -38.612892], [146.777283, -38.630264], [146.78981, -38.644867], [146.777466, -38.662563], [146.724289, -38.651287], [146.69632, -38.674709], [146.655441, -38.674576], [146.670715, -38.658306], [146.640182, -38.640678], [146.660385, -38.662739], [146.607529, -38.688065], [146.494858, -38.68586], [146.400406, -38.723484], [146.347382, -38.675175], [146.332626, -38.691639], [146.213623, -38.696171], [146.232727, -38.702015], [146.204864, -38.725792], [146.207809, -38.745087], [146.195114, -38.729507], [146.184128, -38.755417], [146.19371, -38.747807], [146.220932, -38.776703], [146.234039, -38.808548], [146.267136, -38.807308], [146.297684, -38.906788], [146.416046, -38.850174], [146.441238, -38.782566], [146.478622, -38.79554], [146.469223, -38.865013], [146.492798, -38.916229], [146.469803, -38.922272], [146.43898, -38.980625], [146.443878, -39.01757], [146.476685, -39.030464], [146.464096, -39.040794], [146.484619, -39.064251], [146.459244, -39.05835], [146.433304, -39.073727], [146.444199, -39.094967], [146.426743, -39.132915], [146.400757, -39.13821], [146.350479, -39.129124], [146.3255, -39.097561], [146.343079, -39.067181], [146.321564, -39.038876], [146.306778, -39.042969], [146.30835, -39.028572], [146.2883, -39.032112], [146.278015, -39.001476], [146.254669, -38.997627], [146.268417, -38.978409], [146.186813, -38.872505], [146.18837, -38.859482], [146.164505, -38.81575], [146.154419, -38.839611], [146.181, -38.861404], [146.046951, -38.813969], [146.002975, -38.844482], [146.005264, -38.882549], [145.924133, -38.91], [145.902832, -38.836956], [145.837997, -38.729767], [145.736572, -38.647617], [145.801468, -38.662319], [145.808975, -38.681728], [145.848175, -38.696766], [145.823578, -38.647217], [145.739029, -38.635757], [145.656036, -38.678806], [145.60556, -38.677422], [145.566376, -38.655201], [145.484512, -38.55954], [145.441864, -38.539253], [145.375717, -38.538074], [145.36795, -38.521152], [145.42514, -38.512032], [145.432419, -38.497543], [145.419403, -38.472702], [145.435104, -38.42886], [145.417541, -38.408947], [145.515594, -38.417519], [145.548706, -38.380722], [145.553894, -38.351051], [145.517868, -38.342403], [145.522354, -38.300797], [145.499313, -38.280304], [145.489594, -38.238125], [145.376312, -38.216763], [145.323166, -38.238571], [145.307037, -38.228298], [145.315506, -38.219807], [145.287933, -38.212677], [145.28244, -38.226059], [145.255753, -38.225597], [145.257492, -38.246502], [145.220886, -38.288406], [145.22403, -38.310722], [145.195724, -38.299431], [145.18898, -38.328133], [145.219421, -38.351173], [145.222321, -38.379211], [145.185165, -38.377312], [145.214264, -38.384041], [145.232635, -38.411114], [145.120331, -38.396198], [145.047546, -38.436378], [145.031555, -38.488419], [144.929398, -38.498142], [144.887833, -38.4958], [144.889404, -38.480717], [144.837845, -38.430847], [144.653625, -38.310436], [144.734528, -38.3269], [144.771027, -38.360321], [144.821365, -38.372826], [144.929474, -38.3503], [144.990753, -38.31995], [144.985352, -38.297791], [145.026306, -38.259052], [145.031616, -38.217937], [145.117508, -38.151989], [145.125229, -38.120792], [145.107925, -38.044891], [145.062378, -37.99342], [145.023926, -37.992119], [144.985428, -37.927055], [144.970001, -37.864704], [144.908081, -37.847095], [144.908829, -37.83017], [144.946548, -37.824341], [144.931931, -37.812012], [144.899933, -37.831223], [144.91243, -37.872219], [144.869171, -37.863617], [144.82103, -37.879395], [144.798538, -37.927338], [144.738052, -37.945694], [144.648056, -38.004616], [144.609848, -38.004337], [144.51236, -38.053291], [144.503845, -38.095215], [144.482117, -38.083504], [144.409363, -38.088692], [144.41629, -38.061398], [144.362686, -38.110531], [144.364075, -38.150024], [144.414673, -38.159039], [144.4254, -38.131416], [144.452255, -38.162106], [144.483276, -38.168388], [144.557938, -38.161152], [144.629944, -38.113434], [144.683868, -38.119919], [144.719574, -38.149216], [144.720489, -38.178364], [144.703339, -38.220718], [144.70372, -38.20697], [144.682953, -38.204041], [144.626892, -38.257332], [144.639572, -38.271027], [144.667068, -38.267521], [144.661591, -38.278358], [144.625214, -38.279293], [144.617111, -38.296234], [144.533783, -38.276863], [144.499893, -38.285866], [144.506104, -38.272449], [144.493286, -38.284508], [144.49794, -38.295891], [144.432755, -38.285751], [144.333969, -38.328335], [144.251343, -38.397995], [144.131439, -38.438553], [144.106705, -38.469093], [144.039841, -38.476345], [143.981079, -38.534531], [143.987518, -38.554253], [143.929062, -38.590641], [143.863571, -38.675346], [143.684601, -38.738041], [143.667603, -38.780487], [143.612427, -38.801498], [143.555603, -38.856808], [143.500229, -38.852085], [143.462769, -38.811146], [143.479782, -38.801743], [143.476913, -38.787182], [143.454651, -38.805542], [143.361801, -38.757504], [143.303864, -38.753044], [143.261917, -38.771698], [143.218124, -38.761368], [143.095184, -38.661385], [143.02243, -38.62793], [142.887054, -38.612957], [142.895584, -38.600037], [142.872345, -38.57811], [142.883682, -38.60294], [142.871124, -38.610863], [142.791946, -38.575367], [142.607924, -38.450134]]]]}, "properties": {"name": "Victoria", "iso_3166_2": "VIC", "fips": "07", "type": "state", "cartodb_id": 4, "created_at": "2014-10-16T00:00:00Z", "updated_at": "2014-10-16T00:00:00Z"}}]}